title,image,area_1,area_2,latitude,longitude,address
太魯閣國家公園-太魯閣遊客中心,/hotspots/taiwan_img/太魯閣國家公園-太魯閣遊客中心.jpg,花蓮縣,秀林鄉,24.158076,121.62223,花蓮縣秀林鄉富世村富世291號
七星潭,/hotspots/taiwan_img/七星潭.jpg,花蓮縣,新城鄉,24.031426,121.62717,花蓮縣新城鄉海岸路
九曲洞,/hotspots/taiwan_img/九曲洞.jpg,花蓮縣,秀林鄉,24.17173,121.53102,花蓮縣秀林鄉
清水斷崖,/hotspots/taiwan_img/清水斷崖.jpg,花蓮縣,新城鄉,24.205009,121.67094,花蓮縣新城鄉
花東縱谷國家風景區-鶴岡遊客中心,/hotspots/taiwan_img/花東縱谷國家風景區-鶴岡遊客中心.jpg,花蓮縣,瑞穗鄉,23.524066,121.39086,花蓮縣瑞穗鄉鶴岡村17鄰興鶴路二段168號
鯉魚潭,/hotspots/taiwan_img/鯉魚潭.jpg,花蓮縣,壽豐鄉,23.927826,121.50987,花蓮縣壽豐鄉池南村環潭北路100號
舞鶴觀光茶園,/hotspots/taiwan_img/舞鶴觀光茶園.jpg,花蓮縣,瑞穗鄉,23.447772,121.35462,花蓮縣瑞穗鄉舞鶴村
蘇花公路,/hotspots/taiwan_img/蘇花公路.jpg,花蓮縣,秀林鄉,24.372073,121.78251,花蓮縣秀林鄉
長春祠步道,/hotspots/taiwan_img/長春祠步道.jpg,花蓮縣,秀林鄉,24.160437,121.60305,花蓮縣秀林鄉
六十石山,/hotspots/taiwan_img/六十石山.jpg,花蓮縣,富里鄉,23.220922,121.31118,花蓮縣富里鄉竹田村
秀姑巒溪,/hotspots/taiwan_img/秀姑巒溪.jpg,花蓮縣,瑞穗鄉,23.487892,121.40107,花蓮縣瑞穗鄉中山路三段215號
瑞穗溫泉,/hotspots/taiwan_img/瑞穗溫泉.jpg,花蓮縣,瑞穗鄉,23.496564,121.3436,花蓮縣瑞穗鄉
石梯坪,/hotspots/taiwan_img/石梯坪.jpg,花蓮縣,豐濱鄉,23.488683,121.51379,花蓮縣豐濱鄉石梯坪52號
富源國家森林遊樂區,/hotspots/taiwan_img/富源國家森林遊樂區.jpg,花蓮縣,瑞穗鄉,23.58866,121.35398,花蓮縣瑞穗鄉富源村廣東路161號
布洛灣臺地,/hotspots/taiwan_img/布洛灣臺地.jpg,花蓮縣,秀林鄉,24.17068,121.57261,花蓮縣秀林鄉
砂卡礑步道,/hotspots/taiwan_img/砂卡礑步道.jpg,花蓮縣,秀林鄉,24.162911,121.61326,花蓮縣秀林鄉
池南國家森林遊樂區,/hotspots/taiwan_img/池南國家森林遊樂區.jpg,花蓮縣,壽豐鄉,23.918408,121.50119,花蓮縣壽豐鄉池南村林園路65號
安通溫泉,/hotspots/taiwan_img/安通溫泉.jpg,花蓮縣,玉里鎮,23.28119,121.3418,花蓮縣玉里鎮
花蓮觀光糖廠,/hotspots/taiwan_img/花蓮觀光糖廠.jpg,花蓮縣,光復鄉,23.658718,121.42063,花蓮縣光復鄉糖廠街19號
白楊步道,/hotspots/taiwan_img/白楊步道.jpg,花蓮縣,秀林鄉,24.18584,121.48978,花蓮縣秀林鄉
長虹橋,/hotspots/taiwan_img/長虹橋.jpg,花蓮縣,豐濱鄉,23.467669,121.48885,花蓮縣豐濱鄉臺11線67公里處
綠水步道,/hotspots/taiwan_img/綠水步道.jpg,花蓮縣,秀林鄉,24.178288,121.51277,花蓮縣秀林鄉
新光兆豐休閒農場,/hotspots/taiwan_img/新光兆豐休閒農場.jpg,花蓮縣,鳳林鎮,23.802,121.46304,花蓮縣鳳林鎮永福街20號
花蓮瑞穗-養生溫泉泛舟樂、茶香乳香咖啡香,/hotspots/taiwan_img/花蓮瑞穗-養生溫泉泛舟樂、茶香乳香咖啡香.jpg,花蓮縣,瑞穗鄉,23.497375,121.37684,花蓮縣瑞穗鄉
燕子口,/hotspots/taiwan_img/燕子口.jpg,花蓮縣,秀林鄉,24.172959,121.56444,花蓮縣秀林鄉
東部海岸國家風景區-花蓮遊客中心,/hotspots/taiwan_img/東部海岸國家風景區-花蓮遊客中心.jpg,花蓮縣,壽豐鄉,23.904668,121.60245,花蓮縣壽豐鄉鹽寮村大坑5號
北回歸線標誌公園（瑞穗鄉）,/hotspots/taiwan_img/北回歸線標誌公園（瑞穗鄉）.jpg,花蓮縣,瑞穗鄉,23.465731,121.3574,花蓮縣瑞穗鄉舞鶴村
遠雄海洋公園,/hotspots/taiwan_img/遠雄海洋公園.jpg,花蓮縣,壽豐鄉,23.901259,121.60353,花蓮縣壽豐鄉鹽寮村福德189號
太平洋公園,/hotspots/taiwan_img/太平洋公園.jpg,花蓮縣,花蓮市,23.966388,121.60916,花蓮縣花蓮市
靜思精舍,/hotspots/taiwan_img/靜思精舍.jpg,花蓮縣,新城鄉,24.053826,121.602,花蓮縣新城鄉康樂村精舍街88巷1號
奇萊鼻燈塔,/hotspots/taiwan_img/奇萊鼻燈塔.jpg,花蓮縣,花蓮市,24.016009,121.64376,花蓮縣花蓮市華東路
玉山國家公園-南安遊客中心,/hotspots/taiwan_img/玉山國家公園-南安遊客中心.jpg,花蓮縣,卓溪鄉,23.302637,121.25865,花蓮縣卓溪鄉卓清村83-3號
禪光寺,/hotspots/taiwan_img/禪光寺.jpg,花蓮縣,秀林鄉,24.159292,121.60585,花蓮縣秀林鄉
美崙山,/hotspots/taiwan_img/美崙山.jpg,花蓮縣,花蓮市,23.991514,121.61432,花蓮縣花蓮市
蕃薯寮,/hotspots/taiwan_img/蕃薯寮.jpg,花蓮縣,壽豐鄉,23.747074,121.55544,花蓮縣壽豐鄉
花蓮港燈塔,/hotspots/taiwan_img/花蓮港燈塔.jpg,花蓮縣,花蓮市,23.974708,121.61348,花蓮縣花蓮市花蓮街1號
Satokoay（舞鶴）遺址,/hotspots/taiwan_img/Satokoay（舞鶴）遺址.jpg,花蓮縣,瑞穗鄉,23.470796,121.35942,花蓮縣瑞穗鄉舞鶴村
花蓮文化創意產業園區,/hotspots/taiwan_img/花蓮文化創意產業園區.jpg,花蓮縣,花蓮市,23.976242,121.60485,花蓮縣花蓮市中華路144號
松園別館,/hotspots/taiwan_img/松園別館.jpg,花蓮縣,花蓮市,23.982805,121.61549,花蓮縣花蓮市松園街65號
吉安慶修院,/hotspots/taiwan_img/吉安慶修院.jpg,花蓮縣,吉安鄉,23.973688,121.56471,花蓮縣吉安鄉吉安村中興路345-1號
大農大富平地森林園區,/hotspots/taiwan_img/大農大富平地森林園區.jpg,花蓮縣,光復鄉,23.614854,121.41772,花蓮縣光復鄉農場路31號
玉富自行車道,/hotspots/taiwan_img/玉富自行車道.jpg,花蓮縣,玉里鎮,23.328684,121.31115,花蓮縣玉里鎮
北回歸線（豐濱鄉）,/hotspots/taiwan_img/北回歸線（豐濱鄉）.jpg,花蓮縣,豐濱鄉,23.451362,121.49623,花蓮縣豐濱鄉臺11線70.5公里處
東部海岸國家風景區-奚卜蘭遊客中心（新太平洋一號店）,/hotspots/taiwan_img/東部海岸國家風景區-奚卜蘭遊客中心（新太平洋一號店）.jpg,花蓮縣,豐濱鄉,23.466666,121.48782,花蓮縣豐濱鄉靜浦村靜浦8-1號
羅山遊憩區,/hotspots/taiwan_img/羅山遊憩區.jpg,花蓮縣,富里鄉,23.201642,121.2759,花蓮縣富里鄉羅山村東湖39號
林田山林業文化園區,/hotspots/taiwan_img/林田山林業文化園區.jpg,花蓮縣,鳳林鎮,23.718088,121.39895,花蓮縣鳳林鎮森榮里林森路99巷99號
怡園渡假村,/hotspots/taiwan_img/怡園渡假村.jpg,花蓮縣,壽豐鄉,23.8429,121.52294,花蓮縣壽豐鄉豐坪路三段6巷21號
東部海岸國家風景區-都歷遊客中心,/hotspots/taiwan_img/東部海岸國家風景區-都歷遊客中心.jpg,臺東縣,成功鎮,23.020342,121.32495,臺東縣成功鎮信義里新村路25號
知本溫泉,/hotspots/taiwan_img/知本溫泉.jpg,臺東縣,卑南鄉,22.693043,121.01812,臺東縣卑南鄉
綠島,/hotspots/taiwan_img/綠島.jpg,臺東縣,綠島鄉,22.672185,121.46861,臺東縣綠島鄉南寮村298號
三仙台,/hotspots/taiwan_img/三仙台.jpg,臺東縣,成功鎮,23.126135,121.42168,臺東縣成功鎮三仙里基翬路74號
富岡地質公園（小野柳）,/hotspots/taiwan_img/富岡地質公園（小野柳）.jpg,臺東縣,臺東市,22.794773,121.19818,臺東縣臺東市松江路一段500號
蘭嶼,/hotspots/taiwan_img/蘭嶼.jpg,臺東縣,蘭嶼鄉,22.024498,121.55606,臺東縣蘭嶼鄉
阿美族民俗中心,/hotspots/taiwan_img/阿美族民俗中心.jpg,臺東縣,成功鎮,23.017996,121.32493,臺東縣成功鎮信義里新村路25號
國立臺灣史前文化博物館-康樂本館,/hotspots/taiwan_img/國立臺灣史前文化博物館-康樂本館.jpg,臺東縣,臺東市,22.761285,121.09234,臺東縣臺東市豐田里博物館路1號
知本國家森林遊樂區,/hotspots/taiwan_img/知本國家森林遊樂區.jpg,臺東縣,卑南鄉,22.687449,120.99127,臺東縣卑南鄉溫泉村龍泉路290號
國立臺灣史前文化博物館-卑南遺址公園,/hotspots/taiwan_img/國立臺灣史前文化博物館-卑南遺址公園.jpg,臺東縣,臺東市,22.792165,121.11593,臺東縣臺東市文化公園路200號
綠島朝日溫泉,/hotspots/taiwan_img/綠島朝日溫泉.jpg,臺東縣,綠島鄉,22.63703,121.50418,臺東縣綠島鄉公館村溫泉167號
水往上流,/hotspots/taiwan_img/水往上流.jpg,臺東縣,東河鄉,22.868385,121.2183,臺東縣東河鄉臺11線約148公里處
八仙洞,/hotspots/taiwan_img/八仙洞.jpg,臺東縣,長濱鄉,23.397166,121.47667,臺東縣長濱鄉三間村水母丁1-4號
富岡漁港,/hotspots/taiwan_img/富岡漁港.jpg,臺東縣,臺東市,22.791674,121.19205,臺東縣臺東市富岡街297號
石雨傘,/hotspots/taiwan_img/石雨傘.jpg,臺東縣,成功鎮,23.174512,121.40093,臺東縣成功鎮台11線105.8公里路旁
池上牧野渡假村,/hotspots/taiwan_img/池上牧野渡假村.jpg,臺東縣,池上鄉,23.109691,121.19862,臺東縣池上鄉新興村110號
成功漁港,/hotspots/taiwan_img/成功漁港.jpg,臺東縣,成功鎮,23.099222,121.3802,臺東縣成功鎮港邊路19號
初鹿牧場,/hotspots/taiwan_img/初鹿牧場.jpg,臺東縣,卑南鄉,22.865819,121.10816,臺東縣卑南鄉明峰村牧場1號
臺東森林公園,/hotspots/taiwan_img/臺東森林公園.jpg,臺東縣,臺東市,22.768175,121.15625,臺東縣臺東市華泰路300號
金樽,/hotspots/taiwan_img/金樽.jpg,臺東縣,東河鄉,22.945168,121.2799,臺東縣東河鄉七里橋11號
關山親水公園,/hotspots/taiwan_img/關山親水公園.jpg,臺東縣,關山鎮,23.04,121.17388,臺東縣關山鎮隆盛路1號
霧鹿峽谷,/hotspots/taiwan_img/霧鹿峽谷.jpg,臺東縣,海端鄉,23.174393,121.0395,臺東縣海端鄉
大坡池,/hotspots/taiwan_img/大坡池.jpg,臺東縣,池上鄉,23.119911,121.22404,臺東縣池上鄉（臺9線322K東側轉入）
利稻,/hotspots/taiwan_img/利稻.jpg,臺東縣,海端鄉,23.187162,121.0218,臺東縣海端鄉
花東縱谷國家風景區-鹿野遊客中心,/hotspots/taiwan_img/花東縱谷國家風景區-鹿野遊客中心.jpg,臺東縣,鹿野鄉,22.92384,121.12507,臺東縣鹿野鄉永安村高台路46號
利吉惡地及小黃山,/hotspots/taiwan_img/利吉惡地及小黃山.jpg,臺東縣,卑南鄉,22.815485,121.13836,臺東縣卑南鄉
向陽國家森林遊樂區,/hotspots/taiwan_img/向陽國家森林遊樂區.jpg,臺東縣,海端鄉,23.248188,120.98526,臺東縣海端鄉利稻村向陽7號
東河休閒農場,/hotspots/taiwan_img/東河休閒農場.jpg,臺東縣,東河鄉,23.074716,121.30037,臺東縣東河鄉北源村67號
多良車站,/hotspots/taiwan_img/多良車站.jpg,臺東縣,太麻,22.507487,120.95888,臺東縣太麻里鄉多良村瀧溪路8-1號
鯉魚山公園,/hotspots/taiwan_img/鯉魚山公園.jpg,臺東縣,臺東市,22.755565,121.14242,臺東縣臺東市舊火車站後方
杉原海水浴場,/hotspots/taiwan_img/杉原海水浴場.jpg,臺東縣,卑南鄉,22.830767,121.18612,臺東縣卑南鄉
蘭嶼燈塔,/hotspots/taiwan_img/蘭嶼燈塔.jpg,臺東縣,蘭嶼鄉,22.081021,121.50297,臺東縣蘭嶼鄉
伯朗大道,/hotspots/taiwan_img/伯朗大道.jpg,臺東縣,池上鄉,23.098776,121.2126,臺東縣池上鄉伯朗大道
鹿野高台,/hotspots/taiwan_img/鹿野高台.jpg,臺東縣,鹿野鄉,22.916449,121.12159,臺東縣鹿野鄉高台路46號
鹿野觀光茶園,/hotspots/taiwan_img/鹿野觀光茶園.jpg,臺東縣,鹿野鄉,22.920246,121.12428,臺東縣鹿野鄉高台路46號
加路蘭,/hotspots/taiwan_img/加路蘭.jpg,臺東縣,臺東市,22.80775,121.19607,臺東縣臺東市臺11線157公里處
都蘭紅糖文化園區（新東糖廠）,/hotspots/taiwan_img/都蘭紅糖文化園區（新東糖廠）.jpg,臺東縣,東河鄉,22.872189,121.22544,臺東縣東河鄉都蘭61號
布農部落休閒農場,/hotspots/taiwan_img/布農部落休閒農場.jpg,臺東縣,延平鄉,22.905841,121.09098,臺東縣延平鄉昇平路191號
關山米國學校,/hotspots/taiwan_img/關山米國學校.jpg,臺東縣,關山鎮,23.060986,121.16873,臺東縣關山鎮昌林路24-1號
成功海洋環境教室,/hotspots/taiwan_img/成功海洋環境教室.jpg,臺東縣,成功鎮,23.09766,121.38289,臺東縣成功鎮港邊路1-5號
綠島燈塔,/hotspots/taiwan_img/綠島燈塔.jpg,臺東縣,綠島鄉,22.67662,121.46611,臺東縣綠島鄉中寮村燈塔1號
新元昌紅茶產業文化館,/hotspots/taiwan_img/新元昌紅茶產業文化館.jpg,臺東縣,鹿野鄉,22.932824,121.11977,臺東縣鹿野鄉永安村永安路451號
金剛大道,/hotspots/taiwan_img/金剛大道.jpg,臺東縣,長濱鄉,23.33055,121.45136,臺東縣長濱鄉長光社區忠勇自行車道（東13線／長光產業道路）
臺東原生應用植物園,/hotspots/taiwan_img/臺東原生應用植物園.jpg,臺東縣,卑南鄉,22.852769,121.10404,臺東縣卑南鄉明峰村試驗場8號
國家人權博物館白色恐怖綠島紀念園區,/hotspots/taiwan_img/國家人權博物館白色恐怖綠島紀念園區.jpg,台東縣,綠島鄉,22.674669,121.49699,台東縣綠島鄉將軍岩20號
澎湖跨海大橋,/hotspots/taiwan_img/澎湖跨海大橋.jpg,澎湖縣,白沙鄉,23.657823,119.55453,澎湖縣白沙鄉通西嶼鄉橋樑
二崁傳統聚落,/hotspots/taiwan_img/二崁傳統聚落.jpg,澎湖縣,西嶼鄉,23.605174,119.51961,澎湖縣西嶼鄉二崁村
七美嶼,/hotspots/taiwan_img/七美嶼.jpg,澎湖縣,七美鄉,23.20656,119.42443,澎湖縣七美鄉
西嶼西臺,/hotspots/taiwan_img/西嶼西臺.jpg,澎湖縣,西嶼鄉,23.564167,119.48972,澎湖縣西嶼鄉
桶盤嶼,/hotspots/taiwan_img/桶盤嶼.jpg,澎湖縣,馬公市,23.510682,119.51874,澎湖縣馬公市桶盤嶼
吉貝嶼,/hotspots/taiwan_img/吉貝嶼.jpg,澎湖縣,白沙鄉,23.744722,119.60833,澎湖縣白沙鄉吉貝嶼
望安嶼,/hotspots/taiwan_img/望安嶼.jpg,澎湖縣,望安鄉,23.35758,119.50016,澎湖縣望安鄉
通梁古榕,/hotspots/taiwan_img/通梁古榕.jpg,澎湖縣,白沙鄉,23.656613,119.55701,澎湖縣白沙鄉通梁村149號
虎井嶼,/hotspots/taiwan_img/虎井嶼.jpg,澎湖縣,馬公市,23.490555,119.52777,澎湖縣馬公市虎井嶼
小門嶼,/hotspots/taiwan_img/小門嶼.jpg,澎湖縣,西嶼鄉,23.6525,119.52083,澎湖縣西嶼鄉小門嶼
險礁嶼,/hotspots/taiwan_img/險礁嶼.jpg,澎湖縣,白沙鄉,23.711325,119.6086,澎湖縣白沙鄉險礁嶼
澎湖天后宮,/hotspots/taiwan_img/澎湖天后宮.jpg,澎湖縣,馬公市,23.564694,119.56403,澎湖縣馬公市正義街1號
小白沙嶼,/hotspots/taiwan_img/小白沙嶼.jpg,澎湖縣,白沙鄉,23.678175,119.66706,澎湖縣白沙鄉小白沙嶼
澎湖國家風景區-澎湖遊客中心,/hotspots/taiwan_img/澎湖國家風景區-澎湖遊客中心.jpg,澎湖縣,馬公市,23.555971,119.60687,澎湖縣馬公市光華里171號
順承門,/hotspots/taiwan_img/順承門.jpg,澎湖縣,馬公市,23.563086,119.56223,澎湖縣馬公市中山路（馬公商港旁）
風櫃洞,/hotspots/taiwan_img/風櫃洞.jpg,澎湖縣,馬公市,23.538369,119.54417,澎湖縣馬公市風櫃里
觀音亭,/hotspots/taiwan_img/觀音亭.jpg,澎湖縣,馬公市,23.567592,119.56206,澎湖縣馬公市介壽路7號
林投公園,/hotspots/taiwan_img/林投公園.jpg,澎湖縣,湖西鄉,23.561856,119.64217,澎湖縣湖西鄉林投村
漁翁島燈塔,/hotspots/taiwan_img/漁翁島燈塔.jpg,澎湖縣,西嶼鄉,23.562543,119.4691,澎湖縣西嶼鄉外垵村195號
嵵裡沙灘,/hotspots/taiwan_img/嵵裡沙灘.jpg,澎湖縣,馬公市,23.525679,119.56693,澎湖縣馬公市嵵裡里
目斗嶼,/hotspots/taiwan_img/目斗嶼.jpg,澎湖縣,白沙鄉,23.786291,119.60043,澎湖縣白沙鄉目斗嶼
員貝嶼,/hotspots/taiwan_img/員貝嶼.jpg,澎湖縣,白沙鄉,23.648333,119.63388,澎湖縣白沙鄉員貝嶼
姑婆嶼,/hotspots/taiwan_img/姑婆嶼.jpg,澎湖縣,白沙鄉,23.715,119.55555,澎湖縣白沙鄉姑婆嶼
目斗嶼燈塔,/hotspots/taiwan_img/目斗嶼燈塔.jpg,澎湖縣,白沙鄉,23.786291,119.60043,澎湖縣白沙鄉目斗嶼
東吉嶼燈塔,/hotspots/taiwan_img/東吉嶼燈塔.jpg,澎湖縣,望安鄉,23.261298,119.66949,澎湖縣望安鄉東吉嶼
七美嶼燈塔,/hotspots/taiwan_img/七美嶼燈塔.jpg,澎湖縣,七美,23.190136,119.4282,澎湖縣七美嶼
花嶼燈塔,/hotspots/taiwan_img/花嶼燈塔.jpg,澎湖縣,望安鄉,23.40243,119.31665,澎湖縣望安鄉花嶼島
查母嶼燈塔,/hotspots/taiwan_img/查母嶼燈塔.jpg,澎湖縣,湖西鄉,23.534991,119.72479,澎湖縣湖西鄉查母嶼
澎湖生活博物館,/hotspots/taiwan_img/澎湖生活博物館.jpg,澎湖縣,馬公市,23.566972,119.57944,澎湖縣馬公市新生路327號
篤行十村眷村文化園區,/hotspots/taiwan_img/篤行十村眷村文化園區.jpg,澎湖縣,馬公市,23.563854,119.56094,澎湖縣馬公市新復里
隘門沙灘,/hotspots/taiwan_img/隘門沙灘.jpg,澎湖縣,湖西鄉,23.55478,119.6389,澎湖縣湖西鄉隘門村
大菓葉柱狀玄武岩,/hotspots/taiwan_img/大菓葉柱狀玄武岩.jpg,澎湖縣,西嶼鄉,23.595361,119.51638,澎湖縣西嶼鄉池東村10號
中央老街,/hotspots/taiwan_img/中央老街.jpg,澎湖縣,馬公市,23.564864,119.56487,澎湖縣馬公市中央街
雙心石滬,/hotspots/taiwan_img/雙心石滬.jpg,澎湖縣,七美鄉,23.220255,119.44691,澎湖縣七美鄉
澎湖南方四島國家公園,/hotspots/taiwan_img/澎湖南方四島國家公園.jpg,澎湖縣,東吉,23.257615,119.66794,澎湖縣東吉嶼、西吉嶼、東嶼坪嶼、西嶼坪嶼及周邊島礁
小門地質探索館,/hotspots/taiwan_img/小門地質探索館.jpg,澎湖縣,西嶼鄉,23.653902,119.51723,澎湖縣西嶼鄉小門村11號
北寮遊憩區,/hotspots/taiwan_img/北寮遊憩區.jpg,澎湖縣,湖西鄉,23.598599,119.67175,澎湖縣湖西鄉北寮村
山后民俗文化村,/hotspots/taiwan_img/山后民俗文化村.jpg,金門縣,金沙鎮,24.503811,118.44041,金門縣金沙鎮山后村
翟山坑道,/hotspots/taiwan_img/翟山坑道.jpg,金門縣,金城鎮,24.390301,118.32061,金門縣金城鎮
文臺寶塔,/hotspots/taiwan_img/文臺寶塔.jpg,金門縣,金城鎮,24.398746,118.306,金門縣金城鎮古城村
莒光樓,/hotspots/taiwan_img/莒光樓.jpg,金門縣,金城鎮,24.424968,118.319,金門縣金城鎮賢城路1號
古寧頭戰史館,/hotspots/taiwan_img/古寧頭戰史館.jpg,金門縣,金寧鄉,24.482975,118.32093,金門縣金寧鄉北山村‎古寧頭
太湖遊憩區,/hotspots/taiwan_img/太湖遊憩區.jpg,金門縣,金湖鎮,24.437466,118.42513,金門縣金湖鎮
馬山觀測所,/hotspots/taiwan_img/馬山觀測所.jpg,金門縣,金沙鎮,24.527716,118.40887,金門縣金沙鎮光華路二段
金門國家公園,/hotspots/taiwan_img/金門國家公園.jpg,金門縣,金寧鄉,24.442973,118.35187,金門縣金寧鄉伯玉路二段460號
八二三戰史館,/hotspots/taiwan_img/八二三戰史館.jpg,金門縣,金湖鎮,24.443188,118.4324,金門縣金湖鎮安民村1之11號
邱良功母節孝坊,/hotspots/taiwan_img/邱良功母節孝坊.jpg,金門縣,金城鎮,24.431387,118.31852,金門縣金城鎮莒光路一段
金門金城-後浦古樸文化,/hotspots/taiwan_img/金門金城-後浦古樸文化.jpg,金門縣,金城鎮,24.433119,118.32016,金門縣金城鎮
太武山,/hotspots/taiwan_img/太武山.jpg,金門縣,金湖鎮,24.457021,118.40433,金門縣金湖鎮玉章路
金門慈湖慈堤,/hotspots/taiwan_img/金門慈湖慈堤.jpg,金門縣,金寧鄉,24.463408,118.30054,金門縣金寧鄉
北椗島燈塔,/hotspots/taiwan_img/北椗島燈塔.jpg,金門縣,金湖鎮,24.427053,118.505,金門縣金湖鎮北椗島
東椗島燈塔,/hotspots/taiwan_img/東椗島燈塔.jpg,金門縣,金城鎮,24.159269,118.2384,金門縣金城鎮東椗島
古龍頭振威第,/hotspots/taiwan_img/古龍頭振威第.jpg,金門縣,金寧鄉,24.47842,118.31197,金門縣金寧鄉北山25號
芹壁村,/hotspots/taiwan_img/芹壁村.jpg,連江縣,北竿鄉,26.224782,119.98366,連江縣北竿鄉
八八坑道,/hotspots/taiwan_img/八八坑道.jpg,連江縣,南竿鄉,26.160305,119.95324,連江縣南竿鄉復興村208號
馬祖酒廠,/hotspots/taiwan_img/馬祖酒廠.jpg,連江縣,南竿鄉,26.161237,119.95146,連江縣南竿鄉復興村208號
大埔石刻,/hotspots/taiwan_img/大埔石刻.jpg,連江縣,莒光鄉,25.946459,119.96714,連江縣莒光鄉
枕戈待旦紀念公園,/hotspots/taiwan_img/枕戈待旦紀念公園.jpg,連江縣,南竿鄉,26.155884,119.94014,連江縣南竿鄉
壁山,/hotspots/taiwan_img/壁山.jpg,連江縣,北竿鄉,26.225091,119.99251,連江縣北竿鄉
鐵堡,/hotspots/taiwan_img/鐵堡.jpg,連江縣,南竿鄉,26.142005,119.92089,連江縣南竿鄉
馬祖國家風景區,/hotspots/taiwan_img/馬祖國家風景區.jpg,連江縣,南竿鄉,26.142001,119.92814,連江縣南竿鄉仁愛村95-1號
馬祖民俗文物館,/hotspots/taiwan_img/馬祖民俗文物館.jpg,連江縣,南竿鄉,26.150279,119.93557,連江縣南竿鄉清水村135號
雲台山,/hotspots/taiwan_img/雲台山.jpg,連江縣,南竿鄉,26.150492,119.92306,連江縣南竿鄉
東引島燈塔,/hotspots/taiwan_img/東引島燈塔.jpg,連江縣,東引鄉,26.365429,120.51049,連江縣東引鄉樂華村169號
東莒島燈塔,/hotspots/taiwan_img/東莒島燈塔.jpg,連江縣,莒光鄉,25.964048,119.99058,連江縣莒光鄉福正村56之1號
大坵島,/hotspots/taiwan_img/大坵島.jpg,連江縣,北竿鄉,26.246057,119.99864,連江縣北竿鄉大坵島
津沙聚落,/hotspots/taiwan_img/津沙聚落.jpg,連江縣,南竿鄉,26.146118,119.91321,連江縣南竿鄉津沙村
馬祖境天后宮,/hotspots/taiwan_img/馬祖境天后宮.jpg,連江縣,南竿鄉,26.158251,119.91815,連江縣南竿鄉馬祖村4-1號
經國先生紀念堂,/hotspots/taiwan_img/經國先生紀念堂.jpg,連江縣,南竿鄉,26.150728,119.93432,連江縣南竿鄉
大漢據點,/hotspots/taiwan_img/大漢據點.jpg,連江縣,南竿鄉,26.140628,119.92906,連江縣南竿鄉
馬祖國家風景區-南竿遊客中心,/hotspots/taiwan_img/馬祖國家風景區-南竿遊客中心.jpg,連江縣,南竿鄉,26.141103,119.92742,連江縣南竿鄉仁愛村95-2號
戰爭和平紀念公園主題館,/hotspots/taiwan_img/戰爭和平紀念公園主題館.jpg,連江縣,北竿鄉,26.220592,120.00854,連江縣北竿鄉后澳村1-2號
馬祖國家風景區-北竿遊客中心,/hotspots/taiwan_img/馬祖國家風景區-北竿遊客中心.jpg,連江縣,北竿鄉,26.216276,119.97456,連江縣北竿鄉坂里村47號
士林夜市,/hotspots/taiwan_img/士林夜市.jpg,臺北市,士林區,25.086887,121.52536,臺北市士林區大東路、大南路、文林路、基河路
陽明山國家公園,/hotspots/taiwan_img/陽明山國家公園.jpg,臺北市,北投區,25.155744,121.54762,臺北市北投區竹子湖路1-20號
臺北龍山寺,/hotspots/taiwan_img/臺北龍山寺.jpg,臺北市,萬華區,25.037162,121.4999,臺北市萬華區廣州街211號
饒河街觀光夜市,/hotspots/taiwan_img/饒河街觀光夜市.jpg,臺北市,松山區,25.050954,121.57752,臺北市松山區饒河街
國立故宮博物院,/hotspots/taiwan_img/國立故宮博物院.jpg,臺北市,士林區,25.102355,121.54849,臺北市士林區至善路二段221號
迪化街-年貨大街,/hotspots/taiwan_img/迪化街-年貨大街.jpg,臺北市,大同區,25.055104,121.51003,臺北市大同區迪化街一段
新北投溫泉區,/hotspots/taiwan_img/新北投溫泉區.jpg,臺北市,北投區,25.136879,121.50837,臺北市北投區中山路、光明路
國立中正紀念堂,/hotspots/taiwan_img/國立中正紀念堂.jpg,臺北市,中正區,25.034611,121.52178,臺北市中正區中山南路21號
西門町商圈,/hotspots/taiwan_img/西門町商圈.jpg,臺北市,萬華區,25.044584,121.50753,臺北市萬華區
華西街觀光夜市,/hotspots/taiwan_img/華西街觀光夜市.jpg,臺北市,萬華區,25.038598,121.49844,臺北市萬華區華西街
台北101,/hotspots/taiwan_img/台北101.jpg,臺北市,信義區,25.033976,121.56453,臺北市信義區信義路五段7號
士林官邸,/hotspots/taiwan_img/士林官邸.jpg,臺北市,士林區,25.093077,121.53239,臺北市士林區福林路60號
臺北忠烈祠,/hotspots/taiwan_img/臺北忠烈祠.jpg,臺北市,中山區,25.078381,121.53312,臺北市中山區北安路139號
大稻埕碼頭,/hotspots/taiwan_img/大稻埕碼頭.jpg,臺北市,大同區,25.056615,121.50714,臺北市大同區大稻埕碼頭
總統府,/hotspots/taiwan_img/總統府.jpg,臺北市,中正區,25.040082,121.51195,臺北市中正區重慶南路一段122號
五分埔-成衣街,/hotspots/taiwan_img/五分埔-成衣街.jpg,臺北市,信義區,25.046702,121.57896,臺北市信義區
關渡宮,/hotspots/taiwan_img/關渡宮.jpg,臺北市,北投區,25.117698,121.46393,臺北市北投區知行路360號
大安森林公園,/hotspots/taiwan_img/大安森林公園.jpg,臺北市,大安區,25.032435,121.5349,臺北市大安區新生南路二段1號
臺北市藍色公路,/hotspots/taiwan_img/臺北市藍色公路.jpg,臺北市,大同區,25.056615,121.50714,臺北市大同區大稻埕碼頭
臺北市立動物園,/hotspots/taiwan_img/臺北市立動物園.jpg,臺北市,文山區,24.998346,121.58103,臺北市文山區新光路二段30號
貓空纜車,/hotspots/taiwan_img/貓空纜車.jpg,臺北市,文山區,24.996027,121.57629,臺北市文山區新光路二段8號
美麗華百樂園,/hotspots/taiwan_img/美麗華百樂園.jpg,臺北市,中山區,25.083341,121.55725,臺北市中山區敬業三路20號
國立歷史博物館,/hotspots/taiwan_img/國立歷史博物館.jpg,臺北市,中正區,25.031569,121.51119,臺北市中正區南海路49號
信義商圈,/hotspots/taiwan_img/信義商圈.jpg,臺北市,信義區,25.035547,121.56712,臺北市信義區
建國假日花市、玉市,/hotspots/taiwan_img/建國假日花市、玉市.jpg,臺北市,大安區,25.038336,121.53787,臺北市大安區建國南路一段
行天宮,/hotspots/taiwan_img/行天宮.jpg,臺北市,中山區,25.063069,121.5339,臺北市中山區民權東路二段109號
花博公園,/hotspots/taiwan_img/花博公園.jpg,臺北市,中山區,25.070753,121.52048,臺北市中山區玉門街1號
剝皮寮老街,/hotspots/taiwan_img/剝皮寮老街.jpg,臺北市,萬華區,25.036838,121.50216,臺北市萬華區康定路173巷
國立國父紀念館,/hotspots/taiwan_img/國立國父紀念館.jpg,臺北市,信義區,25.0391,121.56025,臺北市信義區仁愛路四段505號
北投文物館,/hotspots/taiwan_img/北投文物館.jpg,臺北市,北投區,25.138184,121.51443,臺北市北投區幽雅路32號
指南宮,/hotspots/taiwan_img/指南宮.jpg,臺北市,文山區,24.979824,121.58662,臺北市文山區萬壽路115號
貓空茶園,/hotspots/taiwan_img/貓空茶園.jpg,臺北市,文山區,24.967978,121.58721,臺北市文山區指南路三段
大龍峒保安宮,/hotspots/taiwan_img/大龍峒保安宮.jpg,臺北市,大同區,25.0731,121.5154,臺北市大同區哈密街61號
關渡自然公園,/hotspots/taiwan_img/關渡自然公園.jpg,臺北市,北投區,25.118888,121.47083,臺北市北投區關渡路55號
臺北北投-磺泉玉露的風華小鎮,/hotspots/taiwan_img/臺北北投-磺泉玉露的風華小鎮.jpg,臺北市,北投區,25.136304,121.50628,臺北市北投區
關渡碼頭,/hotspots/taiwan_img/關渡碼頭.jpg,臺北市,北投區,25.120615,121.46059,臺北市北投區關渡碼頭
國家兩廳院,/hotspots/taiwan_img/國家兩廳院.jpg,臺北市,中正區,25.036756,121.51904,臺北市中正區中山南路21-1號
松山文創園區,/hotspots/taiwan_img/松山文創園區.jpg,臺北市,信義區,25.043848,121.56063,臺北市信義區光復南路133號
四四南村,/hotspots/taiwan_img/四四南村.jpg,臺北市,信義區,25.031161,121.56179,臺北市信義區松勤街50號
清水巖祖師廟,/hotspots/taiwan_img/清水巖祖師廟.jpg,臺北市,萬華區,25.040264,121.5027,臺北市萬華區康定路81號
青山宮,/hotspots/taiwan_img/青山宮.jpg,臺北市,萬華區,25.039913,121.49953,臺北市萬華區貴陽街二段218號
臺北植物園,/hotspots/taiwan_img/臺北植物園.jpg,臺北市,中正區,25.031004,121.50865,臺北市中正區南海路53號
松山慈祐宮,/hotspots/taiwan_img/松山慈祐宮.jpg,臺北市,松山區,25.051078,121.57773,臺北市松山區八德路四段761號
臺北孔廟,/hotspots/taiwan_img/臺北孔廟.jpg,臺北市,大同區,25.072945,121.5166,臺北市大同區大龍街275號
學海書院,/hotspots/taiwan_img/學海書院.jpg,臺北市,萬華區,25.036329,121.49562,臺北市萬華區環河南路二段93號
國立臺灣博物館,/hotspots/taiwan_img/國立臺灣博物館.jpg,臺北市,中正區,25.042754,121.51503,臺北市中正區襄陽路2號
臺北信義-聚焦國際的時尚之城,/hotspots/taiwan_img/臺北信義-聚焦國際的時尚之城.jpg,臺北市,信義區,25.035547,121.56712,臺北市信義區
芝山文化生態綠園,/hotspots/taiwan_img/芝山文化生態綠園.jpg,臺北市,士林區,25.104276,121.53192,臺北市士林區雨聲街120號
西門紅樓,/hotspots/taiwan_img/西門紅樓.jpg,臺北市,萬華區,25.042013,121.50685,臺北市萬華區成都路10號
國立臺灣科學教育館,/hotspots/taiwan_img/國立臺灣科學教育館.jpg,臺北市,士林區,25.096188,121.51674,臺北市士林區士商路189號
內雙溪自然中心藥用植物園,/hotspots/taiwan_img/內雙溪自然中心藥用植物園.jpg,臺北市,士林區,25.115614,121.57691,臺北市士林區至善路三段150巷27號
臺北小巨蛋,/hotspots/taiwan_img/臺北小巨蛋.jpg,臺北市,松山區,25.051102,121.54985,臺北市松山區南京東路四段2號
臺北二二八和平公園,/hotspots/taiwan_img/臺北二二八和平公園.jpg,臺北市,中正區,25.041825,121.51498,臺北市中正區凱達格蘭大道3號
國史館,/hotspots/taiwan_img/國史館.jpg,臺北市,中正區,25.039994,121.51081,臺北市中正區長沙街一段2號
陽明書屋,/hotspots/taiwan_img/陽明書屋.jpg,臺北市,北投區,25.161627,121.53893,臺北市北投區中興路12號
臺北市立天文科學教育館,/hotspots/taiwan_img/臺北市立天文科學教育館.jpg,臺北市,士林區,25.095833,121.51833,臺北市士林區基河路363號
林安泰古厝民俗文物館,/hotspots/taiwan_img/林安泰古厝民俗文物館.jpg,臺北市,中山區,25.071749,121.53035,臺北市中山區濱江街5號
臺北當代藝術館,/hotspots/taiwan_img/臺北當代藝術館.jpg,臺北市,大同區,25.050729,121.51897,臺北市大同區長安西路39號
臺北霞海城隍廟,/hotspots/taiwan_img/臺北霞海城隍廟.jpg,臺北市,大同區,25.055649,121.51014,臺北市大同區迪化街一段61號
臺北偶戲館,/hotspots/taiwan_img/臺北偶戲館.jpg,臺北市,松山區,25.047736,121.56136,臺北市松山區市民大道五段99號2樓
碧山巖開漳聖王廟,/hotspots/taiwan_img/碧山巖開漳聖王廟.jpg,臺北市,內湖區,25.097074,121.58771,臺北市內湖區碧山路24號
自來水園區-自來水博物館,/hotspots/taiwan_img/自來水園區-自來水博物館.jpg,臺北市,中正區,25.012516,121.53,臺北市中正區思源街1號
順益臺灣原住民博物館,/hotspots/taiwan_img/順益臺灣原住民博物館.jpg,臺北市,士林區,25.100956,121.55198,臺北市士林區至善路二段282號
臺北探索館,/hotspots/taiwan_img/臺北探索館.jpg,臺北市,信義區,25.037524,121.56381,臺北市信義區市府路1號
臺北市立美術館,/hotspots/taiwan_img/臺北市立美術館.jpg,臺北市,中山區,25.072411,121.52481,臺北市中山區中山北路三段181號
大佳碼頭,/hotspots/taiwan_img/大佳碼頭.jpg,臺北市,中山區,25.076183,121.5374,臺北市中山區大佳碼頭
國立臺灣藝術教育館,/hotspots/taiwan_img/國立臺灣藝術教育館.jpg,臺北市,中正區,25.032319,121.51206,臺北市中正區南海路47號
華山1914文化創意產業園區,/hotspots/taiwan_img/華山1914文化創意產業園區.jpg,臺北市,中正區,25.04413,121.52939,臺北市中正區八德路一段1號
陽明山中山樓,/hotspots/taiwan_img/陽明山中山樓.jpg,臺北市,北投區,25.155618,121.55265,臺北市北投區陽明路二段15號
北投圖書館,/hotspots/taiwan_img/北投圖書館.jpg,臺北市,北投區,25.136524,121.50637,臺北市北投區光明路251號
陽明山溫泉區_小油坑,/hotspots/taiwan_img/陽明山溫泉區_小油坑.jpg,臺北市,北投區,25.176662,121.5471,臺北市北投區竹子湖路69號
光點台北,/hotspots/taiwan_img/光點台北.jpg,臺北市,中山區,25.053279,121.52216,臺北市中山區中山北路二段18號
臺北市立兒童新樂園,/hotspots/taiwan_img/臺北市立兒童新樂園.jpg,臺北市,士林區,25.097235,121.51494,臺北市士林區承德路五段55號
臺北大縱走路線,/hotspots/taiwan_img/臺北大縱走路線.jpg,臺北市,北投區,25.12563,121.4671,臺北市北投區大度路3段296巷51號 捷運關渡站（第一段路線起點）
九份,/hotspots/taiwan_img/九份.jpg,新北市,瑞芳區,25.109819,121.84341,新北市瑞芳區基山街、輕便路、汽車路、豎崎路一帶
淡水老街,/hotspots/taiwan_img/淡水老街.jpg,新北市,淡水區,25.171038,121.43895,新北市淡水區中正路
野柳地質公園,/hotspots/taiwan_img/野柳地質公園.jpg,新北市,萬里區,25.20529,121.68992,新北市萬里區港東路167-1號
烏來,/hotspots/taiwan_img/烏來.jpg,新北市,烏來區,24.864935,121.55198,新北市烏來區烏來街45-1號
十分風景特定區,/hotspots/taiwan_img/十分風景特定區.jpg,新北市,平溪區,25.047389,121.78285,新北市平溪區十分風景特定區
碧潭風景區,/hotspots/taiwan_img/碧潭風景區.jpg,新北市,新店區,24.956896,121.53699,新北市新店區新店路
福隆海水浴場,/hotspots/taiwan_img/福隆海水浴場.jpg,新北市,貢寮區,25.021998,121.94315,新北市貢寮區福隆街40號
金山,/hotspots/taiwan_img/金山.jpg,新北市,金山區,25.223244,121.64449,新北市金山區
淡水紅毛城,/hotspots/taiwan_img/淡水紅毛城.jpg,新北市,淡水區,25.175238,121.43317,新北市淡水區中正路28巷1號
三峽老街,/hotspots/taiwan_img/三峽老街.jpg,新北市,三峽區,24.934516,121.37029,新北市三峽區民權街
平溪,/hotspots/taiwan_img/平溪.jpg,新北市,平溪區,25.026689,121.73819,新北市平溪區平溪街45號
淡水漁人碼頭,/hotspots/taiwan_img/淡水漁人碼頭.jpg,新北市,淡水區,25.183009,121.4121,新北市淡水區觀海路
東北角及宜蘭海岸國家風景區-福隆遊客中心,/hotspots/taiwan_img/東北角及宜蘭海岸國家風景區-福隆遊客中心.jpg,新北市,貢寮區,25.017177,121.94255,新北市貢寮區興隆街36號
白沙灣,/hotspots/taiwan_img/白沙灣.jpg,新北市,石門區,25.284314,121.5172,新北市石門區德茂里下員坑
鶯歌,/hotspots/taiwan_img/鶯歌.jpg,新北市,鶯歌區,24.954492,121.3552,新北市鶯歌區
野柳海洋世界,/hotspots/taiwan_img/野柳海洋世界.jpg,新北市,萬里區,25.205308,121.69117,新北市萬里區港東路167-3號
八里左岸,/hotspots/taiwan_img/八里左岸.jpg,新北市,八里區,25.160845,121.43003,新北市八里區觀海大道36號
北海岸及觀音山國家風景區-白沙灣遊客中心,/hotspots/taiwan_img/北海岸及觀音山國家風景區-白沙灣遊客中心.jpg,新北市,石門區,25.282997,121.51885,新北市石門區德茂里下員坑33-6號
南雅,/hotspots/taiwan_img/南雅.jpg,新北市,瑞芳區,25.121805,121.88689,新北市瑞芳區南雅路
烏來溫泉,/hotspots/taiwan_img/烏來溫泉.jpg,新北市,烏來區,24.863401,121.55033,新北市烏來區
鼻頭角,/hotspots/taiwan_img/鼻頭角.jpg,新北市,瑞芳區,25.123949,121.92162,新北市瑞芳區鼻頭路
草嶺古道,/hotspots/taiwan_img/草嶺古道.jpg,新北市,貢寮區,24.990007,121.92537,新北市貢寮區
龍門露營渡假基地（龍門露營區）,/hotspots/taiwan_img/龍門露營渡假基地（龍門露營區）.jpg,新北市,貢寮區,25.018985,121.9386,新北市貢寮區興隆街100號
滿月圓國家森林遊樂區,/hotspots/taiwan_img/滿月圓國家森林遊樂區.jpg,新北市,三峽區,24.830391,121.4447,新北市三峽區
十三行博物館,/hotspots/taiwan_img/十三行博物館.jpg,新北市,八里區,25.156873,121.40485,新北市八里區博物館路200號
龍洞南口海洋公園（龍洞四季灣）,/hotspots/taiwan_img/龍洞南口海洋公園（龍洞四季灣）.jpg,新北市,貢寮區,25.1018,121.9182,新北市貢寮區和美街48號
內洞國家森林遊樂區,/hotspots/taiwan_img/內洞國家森林遊樂區.jpg,新北市,烏來區,24.827958,121.52632,新北市烏來區娃娃谷46號
龍洞灣海洋公園,/hotspots/taiwan_img/龍洞灣海洋公園.jpg,新北市,貢寮區,25.117992,121.91739,新北市貢寮區龍洞街63-8號
大板根森林溫泉渡假村,/hotspots/taiwan_img/大板根森林溫泉渡假村.jpg,新北市,三峽區,24.870996,121.40689,新北市三峽區插角里79號
金山老街（金包里老街）,/hotspots/taiwan_img/金山老街（金包里老街）.jpg,新北市,金山區,25.221824,121.63826,新北市金山區金包里街
十八王公廟,/hotspots/taiwan_img/十八王公廟.jpg,新北市,石門區,25.291889,121.58637,新北市石門區乾華里阿里磅1-1號
淡水金色水岸,/hotspots/taiwan_img/淡水金色水岸.jpg,新北市,淡水區,25.168909,121.44145,新北市淡水區環河道路
三峽清水祖師廟,/hotspots/taiwan_img/三峽清水祖師廟.jpg,新北市,三峽區,24.934,121.37023,新北市三峽區長福街1號
金山溫泉,/hotspots/taiwan_img/金山溫泉.jpg,新北市,金山區,25.214771,121.6444,新北市金山區
新北瑞芳-水金九地區礦山秘境,/hotspots/taiwan_img/新北瑞芳-水金九地區礦山秘境.jpg,新北市,瑞芳區,25.109819,121.84341,新北市瑞芳區
坪林茶業博物館,/hotspots/taiwan_img/坪林茶業博物館.jpg,新北市,坪林區,24.934428,121.713,新北市坪林區水聳淒坑19-1號
深坑老街,/hotspots/taiwan_img/深坑老街.jpg,新北市,深坑區,25.001691,121.61473,新北市深坑區深坑街
藍灣海濱休憩園區（鹽寮海濱公園）,/hotspots/taiwan_img/藍灣海濱休憩園區（鹽寮海濱公園）.jpg,新北市,貢寮區,25.041225,121.92644,新北市貢寮區研海街45號
石門洞,/hotspots/taiwan_img/石門洞.jpg,新北市,石門區,25.295802,121.56842,新北市石門區崁子腳
法鼓山,/hotspots/taiwan_img/法鼓山.jpg,新北市,金山區,25.239827,121.61489,新北市金山區三界里法鼓路555號
鶯歌陶瓷博物館,/hotspots/taiwan_img/鶯歌陶瓷博物館.jpg,新北市,鶯歌區,24.949251,121.35203,新北市鶯歌區文化路200號
烏來泰雅民族博物館,/hotspots/taiwan_img/烏來泰雅民族博物館.jpg,新北市,烏來區,24.86409,121.5515,新北市烏來區烏來街12號
三貂角,/hotspots/taiwan_img/三貂角.jpg,新北市,貢寮區,25.0101,122.00146,新北市貢寮區
女王頭,/hotspots/taiwan_img/女王頭.jpg,新北市,萬里區,25.208802,121.6931,新北市萬里區野柳地質公園
黃金博物館,/hotspots/taiwan_img/黃金博物館.jpg,新北市,瑞芳區,25.107534,121.85789,新北市瑞芳區金瓜石金光路8號
富貴角燈塔,/hotspots/taiwan_img/富貴角燈塔.jpg,新北市,石門區,25.298555,121.53665,新北市石門區
八里風帆碼頭,/hotspots/taiwan_img/八里風帆碼頭.jpg,新北市,八里區,25.163736,121.42275,新北市八里區忠五街
鄞山寺,/hotspots/taiwan_img/鄞山寺.jpg,新北市,淡水區,25.169174,121.44853,新北市淡水區鄧公路15號
淡水紅樹林自然保留區,/hotspots/taiwan_img/淡水紅樹林自然保留區.jpg,新北市,淡水區,25.156302,121.45655,新北市淡水區
鄧麗君墓園（筠園）,/hotspots/taiwan_img/鄧麗君墓園（筠園）.jpg,新北市,金山區,25.247949,121.6017,新北市金山區西勢湖18號
富貴角,/hotspots/taiwan_img/富貴角.jpg,新北市,石門區,25.298298,121.53759,新北市石門區
林本源園邸（板橋林家花園）,/hotspots/taiwan_img/林本源園邸（板橋林家花園）.jpg,新北市,板橋區,25.011119,121.45459,新北市板橋區西門街9號
朱銘美術館,/hotspots/taiwan_img/朱銘美術館.jpg,新北市,金山區,25.246442,121.61121,新北市金山區西勢湖2號
雲仙樂園,/hotspots/taiwan_img/雲仙樂園.jpg,新北市,烏來區,24.845199,121.55391,新北市烏來區瀑布路1-1號
三貂角燈塔,/hotspots/taiwan_img/三貂角燈塔.jpg,新北市,貢寮區,25.007551,122.00189,新北市貢寮區馬崗街38號
萊萊,/hotspots/taiwan_img/萊萊.jpg,新北市,貢寮區,25.002965,122.0036,新北市貢寮區
理學堂大書院（牛津學堂）,/hotspots/taiwan_img/理學堂大書院（牛津學堂）.jpg,新北市,淡水區,25.17602,121.43448,新北市淡水區真理街32號（真理大學）
鼻頭角燈塔,/hotspots/taiwan_img/鼻頭角燈塔.jpg,新北市,瑞芳區,25.128762,121.92346,新北市瑞芳區鼻頭路
淺水灣,/hotspots/taiwan_img/淺水灣.jpg,新北市,三芝區,25.251475,121.46991,新北市三芝區淡金公路（省道臺2線）14.5-16.5公里處
世界宗教博物館,/hotspots/taiwan_img/世界宗教博物館.jpg,新北市,永和區,25.008066,121.50783,新北市永和區中山路一段236號7樓
淡水港燈塔,/hotspots/taiwan_img/淡水港燈塔.jpg,新北市,淡水區,25.177194,121.42011,新北市淡水區中正路一段87巷
老梅綠石槽,/hotspots/taiwan_img/老梅綠石槽.jpg,新北市,石門區,25.292439,121.54471,新北市石門區老梅社區沿海
許新旺陶瓷紀念博物館,/hotspots/taiwan_img/許新旺陶瓷紀念博物館.jpg,新北市,鶯歌區,24.950892,121.34785,新北市鶯歌區尖山埔路81號
野柳燈塔,/hotspots/taiwan_img/野柳燈塔.jpg,新北市,萬里區,25.213567,121.69724,新北市萬里區野柳地質公園
舊草嶺隧道,/hotspots/taiwan_img/舊草嶺隧道.jpg,新北市,貢寮區,25.003945,121.95834,新北市貢寮區
富基漁港,/hotspots/taiwan_img/富基漁港.jpg,新北市,石門區,25.292634,121.5353,新北市石門區富基里
石門婚紗廣場,/hotspots/taiwan_img/石門婚紗廣場.jpg,新北市,石門區,25.287481,121.53149,新北市石門區（臺2線24.3公里處）
櫻木花道,/hotspots/taiwan_img/櫻木花道.jpg,新北市,三芝區,25.248546,121.47742,新北市三芝區大湖路
石門風箏公園,/hotspots/taiwan_img/石門風箏公園.jpg,新北市,石門區,25.289701,121.54871,新北市石門區老梅社區老梅溪旁
硬漢嶺,/hotspots/taiwan_img/硬漢嶺.jpg,新北市,八里區,25.128385,121.42431,新北市八里區
北海岸及觀音山國家風景區-觀音山遊客中心,/hotspots/taiwan_img/北海岸及觀音山國家風景區-觀音山遊客中心.jpg,新北市,五股區,25.129535,121.41802,新北市五股區凌雲路三段130號
獅頭山公園,/hotspots/taiwan_img/獅頭山公園.jpg,新北市,金山區,25.225251,121.64857,新北市金山區磺港路171-2號
觀音山猛禽展示館,/hotspots/taiwan_img/觀音山猛禽展示館.jpg,新北市,五股區,25.129446,121.41817,新北市五股區凌雲路三段130號
觀音山生態園區及林梢步道,/hotspots/taiwan_img/觀音山生態園區及林梢步道.jpg,新北市,五股區,25.12815,121.41998,新北市五股區凌雲路三段130號
北海岸及觀音山國家風景區-金山遊客中心,/hotspots/taiwan_img/北海岸及觀音山國家風景區-金山遊客中心.jpg,新北市,金山區,25.223244,121.64449,新北市金山區磺港路171-2號
基隆市廟口小吃,/hotspots/taiwan_img/基隆市廟口小吃.jpg,基隆市,仁愛區,25.12831,121.74358,基隆市仁愛區仁三路
和平島公園,/hotspots/taiwan_img/和平島公園.jpg,基隆市,中正區,25.160629,121.76384,基隆市中正區平一路360號
外木山情人湖濱海大道,/hotspots/taiwan_img/外木山情人湖濱海大道.jpg,基隆市,中山區,25.163322,121.7271,基隆市中山區湖海路一段
碧砂漁港,/hotspots/taiwan_img/碧砂漁港.jpg,基隆市,中正區,25.147141,121.78629,基隆市中正區北寧路
中正公園,/hotspots/taiwan_img/中正公園.jpg,基隆市,中正區,25.133294,121.75064,基隆市中正區壽山路
八斗子海濱公園 / 望幽谷,/hotspots/taiwan_img/八斗子海濱公園 _ 望幽谷.jpg,基隆市,中正區,25.143584,121.79962,基隆市中正區八斗街
潮境公園,/hotspots/taiwan_img/潮境公園.jpg,基隆市,中正區,25.144125,121.80339,基隆市中正區北寧路369巷
二沙灣砲臺（海門天險）,/hotspots/taiwan_img/二沙灣砲臺（海門天險）.jpg,基隆市,中正區,25.137668,121.75742,基隆市中正區壽山路
基隆港,/hotspots/taiwan_img/基隆港.jpg,基隆市,仁愛區,25.131022,121.74134,基隆市仁愛區忠一路
基隆嶼,/hotspots/taiwan_img/基隆嶼.jpg,基隆市,中正區,25.192753,121.78721,基隆市中正區基隆嶼
大武崙砲臺,/hotspots/taiwan_img/大武崙砲臺.jpg,基隆市,安樂區,25.158659,121.70934,基隆市安樂區基金一路208巷19號
白米甕砲臺（荷蘭城）,/hotspots/taiwan_img/白米甕砲臺（荷蘭城）.jpg,基隆市,中山區,25.155556,121.74304,基隆市中山區光華路37巷
基隆燈塔,/hotspots/taiwan_img/基隆燈塔.jpg,基隆市,中山區,25.155277,121.74761,基隆市中山區光華路
國立海洋科技博物館,/hotspots/taiwan_img/國立海洋科技博物館.jpg,基隆市,中正區,25.140044,121.79883,基隆市中正區北寧路367號
陽明海洋文化藝術館,/hotspots/taiwan_img/陽明海洋文化藝術館.jpg,基隆市,仁愛區,25.132626,121.73999,基隆市仁愛區港西街4號
球子山燈塔,/hotspots/taiwan_img/球子山燈塔.jpg,基隆市,中山區,25.14625,121.74392,基隆市中山區中山三路103巷
彭佳嶼燈塔,/hotspots/taiwan_img/彭佳嶼燈塔.jpg,基隆市,中正區,25.628805,122.07948,基隆市中正區彭佳嶼
北海岸及觀音山國家風景區-和平島遊客中心,/hotspots/taiwan_img/北海岸及觀音山國家風景區-和平島遊客中心.jpg,基隆市,中正區,25.160629,121.76384,基隆市中正區平一路360號
基隆島燈塔,/hotspots/taiwan_img/基隆島燈塔.jpg,基隆市,中正區,25.192905,121.78656,基隆市中正區基隆嶼
明池森林遊樂區,/hotspots/taiwan_img/明池森林遊樂區.jpg,宜蘭縣,大同鄉,24.650911,121.47151,宜蘭縣大同鄉英士村明池山莊1號
龜山島,/hotspots/taiwan_img/龜山島.jpg,宜蘭縣,頭城鎮,24.842373,121.95015,宜蘭縣頭城鎮海岸以東約10公里處
礁溪溫泉,/hotspots/taiwan_img/礁溪溫泉.jpg,宜蘭縣,礁溪鄉,24.831013,121.77596,宜蘭縣礁溪鄉公園路16號
棲蘭森林遊樂區,/hotspots/taiwan_img/棲蘭森林遊樂區.jpg,宜蘭縣,大同鄉,24.580278,121.49212,宜蘭縣大同鄉泰雅路四段6號‎
北關海潮公園,/hotspots/taiwan_img/北關海潮公園.jpg,宜蘭縣,頭城鎮,24.912555,121.87762,宜蘭縣頭城鎮濱海路四段10號
太平山國家森林遊樂區,/hotspots/taiwan_img/太平山國家森林遊樂區.jpg,宜蘭縣,大同鄉,24.497724,121.53503,宜蘭縣大同鄉
冬山河親水公園,/hotspots/taiwan_img/冬山河親水公園.jpg,宜蘭縣,五結鄉,24.672993,121.81581,宜蘭縣五結鄉親河路二段2號
南方澳,/hotspots/taiwan_img/南方澳.jpg,宜蘭縣,蘇澳鎮,24.584472,121.86452,宜蘭縣蘇澳鎮
蘇澳冷泉,/hotspots/taiwan_img/蘇澳冷泉.jpg,宜蘭縣,蘇澳鎮,24.599312,121.84989,宜蘭縣蘇澳鎮冷泉路6-4號
大里,/hotspots/taiwan_img/大里.jpg,宜蘭縣,頭城鎮,24.966766,121.92253,宜蘭縣頭城鎮大里
羅東運動公園,/hotspots/taiwan_img/羅東運動公園.jpg,宜蘭縣,羅東鎮,24.682918,121.75319,宜蘭縣羅東鎮公正路666號
福山植物園,/hotspots/taiwan_img/福山植物園.jpg,宜蘭縣,員山鄉,24.756418,121.59463,宜蘭縣員山鄉湖西村雙埤路福山1號
大里天公廟,/hotspots/taiwan_img/大里天公廟.jpg,宜蘭縣,頭城鎮,24.969631,121.92528,宜蘭縣頭城鎮濱海路七段33號
鳩之澤溫泉,/hotspots/taiwan_img/鳩之澤溫泉.jpg,宜蘭縣,大同鄉,24.545377,121.50818,宜蘭縣大同鄉
五峰旗風景特定區,/hotspots/taiwan_img/五峰旗風景特定區.jpg,宜蘭縣,礁溪鄉,24.834224,121.747,宜蘭縣礁溪鄉五峰路
東北角及宜蘭海岸國家風景區-大里遊客中心,/hotspots/taiwan_img/東北角及宜蘭海岸國家風景區-大里遊客中心.jpg,宜蘭縣,頭城鎮,24.969436,121.92409,宜蘭縣頭城鎮濱海路七段11號
國立傳統藝術中心,/hotspots/taiwan_img/國立傳統藝術中心.jpg,宜蘭縣,五結鄉,24.685587,121.82405,宜蘭縣五結鄉五濱路二段201號
武荖坑風景區,/hotspots/taiwan_img/武荖坑風景區.jpg,宜蘭縣,蘇澳鎮,24.610609,121.81446,宜蘭縣蘇澳鎮武荖坑路75號
宜蘭礁溪-溫泉養生樂活小城,/hotspots/taiwan_img/宜蘭礁溪-溫泉養生樂活小城.jpg,宜蘭縣,礁溪鄉,24.827236,121.77516,宜蘭縣礁溪鄉
大溪蜜月灣,/hotspots/taiwan_img/大溪蜜月灣.jpg,宜蘭縣,頭城鎮,24.932897,121.88576,宜蘭縣頭城鎮合興路66號
蘇澳燈塔,/hotspots/taiwan_img/蘇澳燈塔.jpg,宜蘭縣,蘇澳鎮,24.600002,121.88464,宜蘭縣蘇澳鎮北方澳
宜蘭昭應宮,/hotspots/taiwan_img/宜蘭昭應宮.jpg,宜蘭縣,宜蘭市,24.757591,121.75281,宜蘭縣宜蘭市中山路三段106號
仁山植物園,/hotspots/taiwan_img/仁山植物園.jpg,宜蘭縣,冬山鄉,24.624591,121.75942,宜蘭縣冬山鄉新寮路500號
吳沙故居,/hotspots/taiwan_img/吳沙故居.jpg,宜蘭縣,礁溪鄉,24.788251,121.75933,宜蘭縣礁溪鄉北門巷39號
壯圍沙丘生態園區,/hotspots/taiwan_img/壯圍沙丘生態園區.jpg,宜蘭縣,壯圍鄉,24.737245,121.8201,宜蘭縣壯圍鄉壯濱路二段196巷18號
中興文化創意園區,/hotspots/taiwan_img/中興文化創意園區.jpg,宜蘭縣,五結鄉,24.694236,121.77163,宜蘭縣五結鄉中正路二段6-8號
礁溪溫泉公園,/hotspots/taiwan_img/礁溪溫泉公園.jpg,宜蘭縣,礁溪鄉,24.831013,121.77596,宜蘭縣礁溪鄉公園路16號
羅東林業文化園區,/hotspots/taiwan_img/羅東林業文化園區.jpg,宜蘭縣,羅東鎮,24.684278,121.77235,宜蘭縣羅東鎮中正北路118號
綠舞莊園日式主題遊樂區,/hotspots/taiwan_img/綠舞莊園日式主題遊樂區.jpg,宜蘭縣,五結鄉,24.70324,121.82083,宜蘭縣五結鄉五濱路二段459號
拉拉山,/hotspots/taiwan_img/拉拉山.jpg,桃園市,復興區,24.703442,121.42263,桃園市復興區
石門水庫,/hotspots/taiwan_img/石門水庫.jpg,桃園市,大溪區,24.81147,121.2476,桃園市大溪區復興里環湖路一段68號
大溪老街,/hotspots/taiwan_img/大溪老街.jpg,桃園市,大溪區,24.885186,121.28747,桃園市大溪區和平路、中山路
小人國主題樂園,/hotspots/taiwan_img/小人國主題樂園.jpg,桃園市,龍潭區,24.831524,121.18728,桃園市龍潭區高原路891號
角板山公園,/hotspots/taiwan_img/角板山公園.jpg,桃園市,復興區,24.813974,121.35068,桃園市復興區中正路133-1號
慈湖,/hotspots/taiwan_img/慈湖.jpg,桃園市,大溪區,24.840348,121.29428,桃園市大溪區復興路一段1097號
小烏來風景特定區,/hotspots/taiwan_img/小烏來風景特定區.jpg,桃園市,復興區,24.791157,121.37651,桃園市復興區下宇內4-6號
新屋綠色走廊,/hotspots/taiwan_img/新屋綠色走廊.jpg,桃園市,新屋區,24.969406,121.01238,桃園市新屋區
東眼山國家森林遊樂區,/hotspots/taiwan_img/東眼山國家森林遊樂區.jpg,桃園市,復興區,24.82511,121.41761,桃園市復興區
埔心牧場,/hotspots/taiwan_img/埔心牧場.jpg,桃園市,楊梅區,24.925942,121.17637,桃園市楊梅區高榮里幼獅路一段439號
大溪花海農場,/hotspots/taiwan_img/大溪花海農場.jpg,桃園市,大溪區,24.842303,121.29121,桃園市大溪區復興路一段1093巷27號
桃園大溪-獨一無二總統鎮,/hotspots/taiwan_img/桃園大溪-獨一無二總統鎮.jpg,桃園市,大溪區,24.885501,121.28727,桃園市大溪區
虎頭山公園,/hotspots/taiwan_img/虎頭山公園.jpg,桃園市,桃園區,25.00177,121.33093,桃園市桃園區公園路42號
龍潭觀光大池,/hotspots/taiwan_img/龍潭觀光大池.jpg,桃園市,龍潭區,24.861704,121.21004,桃園市龍潭區
白沙岬燈塔,/hotspots/taiwan_img/白沙岬燈塔.jpg,桃園市,觀音區,25.041313,121.07624,桃園市觀音區新坡下16號
爺亨梯田,/hotspots/taiwan_img/爺亨梯田.jpg,桃園市,復興區,24.67529,121.37287,桃園市復興區爺亨道路
竹圍漁港,/hotspots/taiwan_img/竹圍漁港.jpg,桃園市,大園區,25.116855,121.24415,桃園市大園區沙崙里1鄰漁港路451巷25號
永安漁港,/hotspots/taiwan_img/永安漁港.jpg,桃園市,新屋區,24.987943,121.01492,桃園市新屋區中山西路三段1165號
小烏來天空步道,/hotspots/taiwan_img/小烏來天空步道.jpg,桃園市,復興區,24.790636,121.37516,桃園市復興區義盛里42號
三坑老街,/hotspots/taiwan_img/三坑老街.jpg,桃園市,龍潭區,24.843865,121.24799,桃園市龍潭區三坑子
大溪橋,/hotspots/taiwan_img/大溪橋.jpg,桃園市,大溪區,24.885101,121.2826,桃園市大溪區瑞安路一段273號
大溪老茶廠,/hotspots/taiwan_img/大溪老茶廠.jpg,桃園市,大溪區,24.830647,121.32838,桃園市大溪區復興路二段732巷80號
觀音濱海遊憩區,/hotspots/taiwan_img/觀音濱海遊憩區.jpg,桃園市,觀音區,25.044734,121.07598,桃園市觀音區
富岡老街,/hotspots/taiwan_img/富岡老街.jpg,桃園市,楊梅區,24.936328,121.08243,桃園市楊梅區中正路、信義街、民生街
巴陵古道生態園區,/hotspots/taiwan_img/巴陵古道生態園區.jpg,桃園市,復興區,24.679591,121.38315,桃園市復興區華陵村7鄰29號
福源老茶廠,/hotspots/taiwan_img/福源老茶廠.jpg,桃園市,龍潭區,24.863046,121.19349,桃園市龍潭區竹龍路590巷56號
大溪中正公園,/hotspots/taiwan_img/大溪中正公園.jpg,桃園市,大溪區,24.883883,121.28482,桃園市大溪區普濟路
范姜老屋群,/hotspots/taiwan_img/范姜老屋群.jpg,桃園市,新屋區,24.976194,121.10444,桃園市新屋區中正路110巷1、2、3、6、9號
郭元益糕餅博物館,/hotspots/taiwan_img/郭元益糕餅博物館.jpg,桃園市,楊梅區,24.928922,121.16736,桃園市楊梅區幼獅工業區青年路9巷3號
稻米故事館,/hotspots/taiwan_img/稻米故事館.jpg,桃園市,新屋區,24.972325,121.10758,桃園市新屋區中華路242號
圳頭里軍史公園,/hotspots/taiwan_img/圳頭里軍史公園.jpg,桃園市,大園區,25.093407,121.19671,桃園市大園區古亭路
峨眉湖,/hotspots/taiwan_img/峨眉湖.jpg,新竹縣,峨眉鄉,24.678362,120.98512,新竹縣峨眉鄉
北埔冷泉,/hotspots/taiwan_img/北埔冷泉.jpg,新竹縣,北埔鄉,24.662994,121.07242,新竹縣北埔鄉大坪路
內灣小鎮,/hotspots/taiwan_img/內灣小鎮.jpg,新竹縣,橫山鄉,24.705431,121.18247,新竹縣橫山鄉內灣村
新埔小鎮,/hotspots/taiwan_img/新埔小鎮.jpg,新竹縣,新埔鎮,24.827883,121.07114,新竹縣新埔鎮
北埔老街,/hotspots/taiwan_img/北埔老街.jpg,新竹縣,北埔鄉,24.699816,121.05722,新竹縣北埔鄉北埔街
六福村主題遊樂園,/hotspots/taiwan_img/六福村主題遊樂園.jpg,新竹縣,關西鎮,24.821165,121.18179,新竹縣關西鎮拱子溝60號
The One南園人文客棧,/hotspots/taiwan_img/The One南園人文客棧.jpg,新竹縣,新埔鎮,24.868007,121.10425,新竹縣新埔鎮九芎湖32號
枋寮褒忠亭義民廟,/hotspots/taiwan_img/枋寮褒忠亭義民廟.jpg,新竹縣,新埔鎮,24.844249,121.03639,新竹縣新埔鎮義民路三段360號
參山國家風景區-獅山遊客中心,/hotspots/taiwan_img/參山國家風景區-獅山遊客中心.jpg,新竹縣,峨眉鄉,24.654881,121.02448,新竹縣峨眉鄉七星村六寮60-8號
清泉風景特定區,/hotspots/taiwan_img/清泉風景特定區.jpg,新竹縣,五峰鄉,24.5753,121.10523,新竹縣五峰鄉
尖石巨木群,/hotspots/taiwan_img/尖石巨木群.jpg,新竹縣,尖石鄉,24.706684,121.20497,新竹縣尖石鄉
霞喀羅國家步道,/hotspots/taiwan_img/霞喀羅國家步道.jpg,新竹縣,五峰鄉,24.561412,121.17834,新竹縣五峰鄉
馬武督探索森林,/hotspots/taiwan_img/馬武督探索森林.jpg,新竹縣,關西鎮,24.76785,121.28136,新竹縣關西鎮錦山里12鄰138-3號
小叮噹科學主題樂園,/hotspots/taiwan_img/小叮噹科學主題樂園.jpg,新竹縣,新豐鄉,24.868971,120.98005,新竹縣新豐鄉康和路199號
清泉溫泉,/hotspots/taiwan_img/清泉溫泉.jpg,新竹縣,五峰鄉,24.574652,121.1052,新竹縣五峰鄉
湖口老街,/hotspots/taiwan_img/湖口老街.jpg,新竹縣,湖口鄉,24.876872,121.05514,新竹縣湖口鄉湖口老街
錦屏溫泉,/hotspots/taiwan_img/錦屏溫泉.jpg,新竹縣,尖石鄉,24.687287,121.22228,新竹縣尖石鄉錦屏村
張學良文化園區,/hotspots/taiwan_img/張學良文化園區.jpg,新竹縣,五峰鄉,24.572472,121.10536,新竹縣五峰鄉桃山村清泉256-6號
綠世界生態農場,/hotspots/taiwan_img/綠世界生態農場.jpg,新竹縣,北埔鄉,24.698809,121.07109,新竹縣北埔鄉大湖村20號
六寮古道,/hotspots/taiwan_img/六寮古道.jpg,新竹縣,峨眉鄉,24.655282,121.02327,新竹縣峨眉鄉七星村六寮69號
歇心茶樓,/hotspots/taiwan_img/歇心茶樓.jpg,新竹縣,峨眉鄉,24.654942,121.0245,新竹縣峨眉鄉七星村六寮60-8號
萬瑞森林樂園,/hotspots/taiwan_img/萬瑞森林樂園.jpg,新竹縣,橫山鄉,24.702988,121.13463,新竹縣橫山鄉橫山村23鄰23號
竹塹城迎曦門,/hotspots/taiwan_img/竹塹城迎曦門.jpg,新竹市,東區,24.80416,120.97024,新竹市東區東門街
新竹都城隍廟,/hotspots/taiwan_img/新竹都城隍廟.jpg,新竹市,北區,24.804243,120.96614,新竹市北區中山路75號
青草湖,/hotspots/taiwan_img/青草湖.jpg,新竹市,東區,24.774934,120.9709,新竹市東區
十七公里海岸風景區,/hotspots/taiwan_img/十七公里海岸風景區.jpg,新竹市,北區,24.846239,120.92589,新竹市北區
十八尖山,/hotspots/taiwan_img/十八尖山.jpg,新竹市,東區,24.792534,120.98459,新竹市東區博愛街及寶山路
玻璃工藝博物館,/hotspots/taiwan_img/玻璃工藝博物館.jpg,新竹市,北區,24.801313,120.97811,新竹市北區東大路一段2號
新竹州廳（新竹市政府）,/hotspots/taiwan_img/新竹州廳（新竹市政府）.jpg,新竹市,北區,24.806764,120.96879,新竹市北區中正路120號
影像博物館,/hotspots/taiwan_img/影像博物館.jpg,新竹市,東區,24.804924,120.96961,新竹市東區中正路65號
奮起湖風景區,/hotspots/taiwan_img/奮起湖風景區.jpg,嘉義縣,竹崎鄉,23.50419,120.69592,嘉義縣竹崎鄉中和村奮起湖
阿里山國家森林遊樂區,/hotspots/taiwan_img/阿里山國家森林遊樂區.jpg,嘉義縣,阿里,23.511294,120.80367,嘉義縣阿里山鄉中正村59號
阿里山國家風景區-觸口遊客中心,/hotspots/taiwan_img/阿里山國家風景區-觸口遊客中心.jpg,嘉義縣,番路鄉,23.446268,120.58525,嘉義縣番路鄉觸口村車埕51號
瑞里風景區,/hotspots/taiwan_img/瑞里風景區.jpg,嘉義縣,梅山鄉,23.540082,120.66892,嘉義縣梅山鄉
東石漁人碼頭（東石漁港）,/hotspots/taiwan_img/東石漁人碼頭（東石漁港）.jpg,嘉義縣,東石鄉,23.448865,120.13533,嘉義縣東石鄉彩霞大道420號
布袋觀光漁市,/hotspots/taiwan_img/布袋觀光漁市.jpg,嘉義縣,布袋鎮,23.379479,120.15556,嘉義縣布袋鎮中山路3號
仁義潭水庫,/hotspots/taiwan_img/仁義潭水庫.jpg,嘉義縣,番路鄉,23.461,120.50225,嘉義縣番路鄉
西拉雅國家風景區-中埔遊客中心,/hotspots/taiwan_img/西拉雅國家風景區-中埔遊客中心.jpg,嘉義縣,中埔鄉,23.400707,120.51207,嘉義縣中埔鄉同仁村同仁1-9號
布袋鹽場,/hotspots/taiwan_img/布袋鹽場.jpg,嘉義縣,布袋鎮,23.381454,120.16863,嘉義縣布袋鎮新厝仔13號
太平雲梯,/hotspots/taiwan_img/太平雲梯.jpg,嘉義縣,梅山鄉,23.559601,120.60008,嘉義縣梅山鄉太平村下坑仔5號
好美寮自然保護區,/hotspots/taiwan_img/好美寮自然保護區.jpg,嘉義縣,布袋鎮,23.363065,120.13124,嘉義縣布袋鎮好美里
鰲鼓濕地,/hotspots/taiwan_img/鰲鼓濕地.jpg,嘉義縣,東石鄉,23.506427,120.11924,嘉義縣東石鄉
國立故宮博物院南部院區,/hotspots/taiwan_img/國立故宮博物院南部院區.jpg,嘉義縣,太保市,23.473129,120.29271,嘉義縣太保市故宮大道888號
高跟鞋教堂,/hotspots/taiwan_img/高跟鞋教堂.jpg,嘉義縣,布袋鎮,23.377751,120.14875,嘉義縣布袋鎮海興街6號
頂湖自然生態園區,/hotspots/taiwan_img/頂湖自然生態園區.jpg,嘉義縣,阿里,23.491319,120.72185,嘉義縣阿里山鄉
觸口天長地久橋,/hotspots/taiwan_img/觸口天長地久橋.jpg,嘉義縣,番路鄉,23.43888,120.60598,嘉義縣番路鄉
圓潭生態園區,/hotspots/taiwan_img/圓潭生態園區.jpg,嘉義縣,竹崎鄉,23.528943,120.65933,嘉義縣竹崎鄉
隙頂象山觀景臺,/hotspots/taiwan_img/隙頂象山觀景臺.jpg,嘉義縣,番路鄉,23.431459,120.66397,嘉義縣番路鄉
牛埔仔愛情大草原,/hotspots/taiwan_img/牛埔仔愛情大草原.jpg,嘉義縣,番路鄉,23.443655,120.59088,嘉義縣番路鄉觸口村車埕15號
洲南鹽場,/hotspots/taiwan_img/洲南鹽場.jpg,嘉義縣,布袋鎮,23.383929,120.16737,嘉義縣布袋鎮新厝仔402號
鄒族自然與文化中心,/hotspots/taiwan_img/鄒族自然與文化中心.jpg,嘉義縣,阿里,23.453945,120.74937,嘉義縣阿里山鄉達邦村21號
庫巴（男子集會所）,/hotspots/taiwan_img/庫巴（男子集會所）.jpg,嘉義縣,阿里,23.45485,120.74955,嘉義縣阿里山鄉達邦村
日警官舍,/hotspots/taiwan_img/日警官舍.jpg,嘉義縣,阿里,23.453702,120.74892,嘉義縣阿里山鄉達邦村
嘉義公園,/hotspots/taiwan_img/嘉義公園.jpg,嘉義市,東區,23.483329,120.46523,嘉義市東區啟明路264號
蘭潭風景區,/hotspots/taiwan_img/蘭潭風景區.jpg,嘉義市,東區,23.466438,120.47924,嘉義市東區小雅路
阿里山森林鐵路,/hotspots/taiwan_img/阿里山森林鐵路.jpg,嘉義市,西區,23.479118,120.44113,嘉義市西區中山路528號
嘉義文化路夜市,/hotspots/taiwan_img/嘉義文化路夜市.jpg,嘉義市,東區,23.479481,120.44969,嘉義市東區文化路
嘉義樹木園,/hotspots/taiwan_img/嘉義樹木園.jpg,嘉義市,東區,23.483881,120.46646,嘉義市東區山子頂270號
嘉義市立文化中心,/hotspots/taiwan_img/嘉義市立文化中心.jpg,嘉義市,東區,23.487285,120.45233,嘉義市東區忠孝路275號
嘉義市立博物館,/hotspots/taiwan_img/嘉義市立博物館.jpg,嘉義市,東區,23.487208,120.45175,嘉義市東區忠孝路275-1號
嘉義市史蹟資料館,/hotspots/taiwan_img/嘉義市史蹟資料館.jpg,嘉義市,東區,23.481039,120.46748,嘉義市東區公園街42號
阿里山森林鐵路車庫園區,/hotspots/taiwan_img/阿里山森林鐵路車庫園區.jpg,嘉義市,東區,23.486342,120.45126,嘉義市東區林森西路2號
阿里山林業村暨檜意森活村,/hotspots/taiwan_img/阿里山林業村暨檜意森活村.jpg,嘉義市,東區,23.48599,120.44843,嘉義市東區林森西路4號
安平古堡,/hotspots/taiwan_img/安平古堡.jpg,臺南市,安平區,23.001509,120.16062,臺南市安平區國勝路82號
關子嶺溫泉,/hotspots/taiwan_img/關子嶺溫泉.jpg,臺南市,白河區,23.339651,120.50439,臺南市白河區
赤崁樓,/hotspots/taiwan_img/赤崁樓.jpg,臺南市,中西區,22.997478,120.20254,臺南市中西區民族路二段212號
億載金城,/hotspots/taiwan_img/億載金城.jpg,臺南市,安平區,22.987883,120.15925,臺南市安平區光州路3號
延平郡王祠,/hotspots/taiwan_img/延平郡王祠.jpg,臺南市,中西區,22.987844,120.20778,臺南市中西區開山路152號
草山月世界,/hotspots/taiwan_img/草山月世界.jpg,臺南市,左鎮區,22.985992,120.44218,臺南市左鎮區
西拉雅國家風景區,/hotspots/taiwan_img/西拉雅國家風景區.jpg,臺南市,官田區,23.188554,120.33619,臺南市官田區官田里福田路99號
七股鹽山,/hotspots/taiwan_img/七股鹽山.jpg,臺南市,七股區,23.154125,120.09999,臺南市七股區鹽埕里66號
台江國家公園,/hotspots/taiwan_img/台江國家公園.jpg,臺南市,安南區,23.00287,120.13626,臺南市安南區四草大道118號
祀典武廟,/hotspots/taiwan_img/祀典武廟.jpg,臺南市,中西區,22.996403,120.20215,臺南市中西區永福路二段229號
奇美博物館,/hotspots/taiwan_img/奇美博物館.jpg,臺南市,仁德區,22.934752,120.22605,臺南市仁德區文華路二段66號
雲嘉南濱海國家風景區-北門遊客中心,/hotspots/taiwan_img/雲嘉南濱海國家風景區-北門遊客中心.jpg,臺南市,北門區,23.267152,120.12396,臺南市北門區北門里200號
井仔腳瓦盤鹽田,/hotspots/taiwan_img/井仔腳瓦盤鹽田.jpg,臺南市,北門區,23.25883,120.10756,臺南市北門區永華里井仔腳
南鯤鯓代天府,/hotspots/taiwan_img/南鯤鯓代天府.jpg,臺南市,北門區,23.286086,120.14313,臺南市北門區鯤江976號
大天后宮,/hotspots/taiwan_img/大天后宮.jpg,臺南市,中西區,22.996616,120.20154,臺南市中西區永福路二段227巷18號
虎頭埤風景區,/hotspots/taiwan_img/虎頭埤風景區.jpg,臺南市,新化區,23.027118,120.33603,臺南市新化區中興路42巷36號
七股潟湖,/hotspots/taiwan_img/七股潟湖.jpg,臺南市,七股區,23.134676,120.06513,臺南市七股區
曾文水庫,/hotspots/taiwan_img/曾文水庫.jpg,臺南市,楠西區,23.25055,120.53671,臺南市楠西區密枝里70號
黑面琵鷺保護區,/hotspots/taiwan_img/黑面琵鷺保護區.jpg,臺南市,七股區,23.079186,120.05309,臺南市七股區十份里海埔47號
柳營尖山埤渡假村,/hotspots/taiwan_img/柳營尖山埤渡假村.jpg,臺南市,柳營區,23.264258,120.39403,臺南市柳營區旭山里60號
走馬瀨農場,/hotspots/taiwan_img/走馬瀨農場.jpg,臺南市,大內區,23.137177,120.42985,臺南市大內區二溪里唭子瓦60號
烏山頭水庫風景區（珊瑚潭）,/hotspots/taiwan_img/烏山頭水庫風景區（珊瑚潭）.jpg,臺南市,官田區,23.207888,120.36338,臺南市官田區嘉南里68-2號
雲嘉南濱海國家風景區,/hotspots/taiwan_img/雲嘉南濱海國家風景區.jpg,臺南市,北門區,23.268768,120.12421,臺南市北門區北門里舊埕119號
台灣鹽博物館,/hotspots/taiwan_img/台灣鹽博物館.jpg,臺南市,七股區,23.155418,120.10596,臺南市七股區鹽埕里69號
臺南安平-臺灣之名源自安平,/hotspots/taiwan_img/臺南安平-臺灣之名源自安平.jpg,臺南市,安平區,23.001509,120.16062,臺南市安平區
黑面琵鷺生態展示館,/hotspots/taiwan_img/黑面琵鷺生態展示館.jpg,臺南市,七股區,23.08135,120.06267,臺南市七股區十份里海埔47號
頑皮世界野生動物園,/hotspots/taiwan_img/頑皮世界野生動物園.jpg,臺南市,學甲區,23.281004,120.20947,臺南市學甲區頂洲75-25號
七股海產街,/hotspots/taiwan_img/七股海產街.jpg,臺南市,七股區,23.13818,120.11378,臺南市七股區
臺南孔廟,/hotspots/taiwan_img/臺南孔廟.jpg,臺南市,中西區,22.990444,120.2043,臺南市中西區南門路2號
臺灣烏腳病醫療紀念館,/hotspots/taiwan_img/臺灣烏腳病醫療紀念館.jpg,臺南市,北門區,23.269598,120.12371,臺南市北門區永隆里27號
臺南天壇,/hotspots/taiwan_img/臺南天壇.jpg,臺南市,中西區,22.993767,120.20417,臺南市中西區忠義路二段84巷16號
南化水庫,/hotspots/taiwan_img/南化水庫.jpg,臺南市,南化區,23.086303,120.53678,臺南市南化區玉山里139號
東隆文化中心,/hotspots/taiwan_img/東隆文化中心.jpg,臺南市,北門區,23.238274,120.1117,臺南市北門區三寮灣127-3號
林初埤木棉花道,/hotspots/taiwan_img/林初埤木棉花道.jpg,臺南市,白河區,23.378123,120.40994,臺南市白河區玉豐里林初埤
國聖港燈塔,/hotspots/taiwan_img/國聖港燈塔.jpg,臺南市,七股區,23.100716,120.03599,臺南市七股區國聖港
鹽水武廟,/hotspots/taiwan_img/鹽水武廟.jpg,臺南市,鹽水區,23.323823,120.26577,臺南市鹽水區武廟路87號
麻豆代天府,/hotspots/taiwan_img/麻豆代天府.jpg,臺南市,麻豆區,23.190226,120.26043,臺南市麻豆區南勢里關帝廟60號
安平燈塔,/hotspots/taiwan_img/安平燈塔.jpg,臺南市,安平區,22.991041,120.14729,臺南市安平區漁光路202號
海山館,/hotspots/taiwan_img/海山館.jpg,臺南市,安平區,23.001414,120.16263,臺南市安平區效忠街52巷3號
水晶教堂,/hotspots/taiwan_img/水晶教堂.jpg,臺南市,北門區,23.26428,120.12269,臺南市北門區北門里200號
碧雲寺,/hotspots/taiwan_img/碧雲寺.jpg,臺南市,白河區,23.325231,120.48085,臺南市白河區仙草里火山路1號
錢來也雜貨店,/hotspots/taiwan_img/錢來也雜貨店.jpg,臺南市,北門區,23.268065,120.12395,臺南市北門區舊埕187號
水火同源,/hotspots/taiwan_img/水火同源.jpg,臺南市,白河區,23.322131,120.48504,臺南市白河區關嶺里18號
嶺頂公園,/hotspots/taiwan_img/嶺頂公園.jpg,臺南市,白河區,23.33812,120.50357,臺南市白河區關嶺里28-3號
八田與一紀念園區,/hotspots/taiwan_img/八田與一紀念園區.jpg,臺南市,官田區,23.213932,120.3648,臺南市官田區嘉南里66號
稻荷咖工作坊,/hotspots/taiwan_img/稻荷咖工作坊.jpg,臺南市,白河區,23.389447,120.43481,臺南市白河區草店里54號
美雅家具觀光工廠,/hotspots/taiwan_img/美雅家具觀光工廠.jpg,臺南市,白河區,23.382015,120.43294,臺南市白河區甘宅101-1號
李子園小舖,/hotspots/taiwan_img/李子園小舖.jpg,臺南市,東山區,23.287118,120.50624,臺南市東山區高原93號
國立臺灣歷史博物館,/hotspots/taiwan_img/國立臺灣歷史博物館.jpg,臺南市,安南區,23.058373,120.23498,臺南市安南區長和路一段250號
西拉雅國家風景區-官田遊客中心,/hotspots/taiwan_img/西拉雅國家風景區-官田遊客中心.jpg,臺南市,官田區,23.18872,120.33542,臺南市官田區官田里福田路99號
雲嘉南濱海國家風景區-七股遊客中心,/hotspots/taiwan_img/雲嘉南濱海國家風景區-七股遊客中心.jpg,臺南市,七股區,23.154107,120.10348,臺南市七股區塩埕里塩埕102-8號
國立臺灣史前文化博物館-南科考古館,/hotspots/taiwan_img/國立臺灣史前文化博物館-南科考古館.jpg,臺南市,新市區,23.100957,120.28355,臺南市新市區南科三路10號
國立臺灣文學館,/hotspots/taiwan_img/國立臺灣文學館.jpg,臺南市,中西區,22.9922,120.20458,臺南市中西區中正路1號(湯德章大道1號)
旗津,/hotspots/taiwan_img/旗津.jpg,高雄市,旗津區,22.614086,120.2697,高雄市旗津區
西子灣,/hotspots/taiwan_img/西子灣.jpg,高雄市,鼓山區,22.625731,120.26374,高雄市鼓山區蓮海路51號
蓮池潭,/hotspots/taiwan_img/蓮池潭.jpg,高雄市,左營區,22.678695,120.29691,高雄市左營區蓮潭路
田寮月世界,/hotspots/taiwan_img/田寮月世界.jpg,高雄市,田寮區,22.885845,120.38996,高雄市田寮區月球路36號
六合觀光夜市,/hotspots/taiwan_img/六合觀光夜市.jpg,高雄市,新興區,22.632075,120.29915,高雄市新興區六合二路與中山一路口
愛河,/hotspots/taiwan_img/愛河.jpg,高雄市,前金區,22.62486,120.28912,高雄市前金區河東路
澄清湖,/hotspots/taiwan_img/澄清湖.jpg,高雄市,鳥松區,22.66036,120.3538,高雄市鳥松區大埤路32號
壽山國家自然公園,/hotspots/taiwan_img/壽山國家自然公園.jpg,高雄市,鼓山區,22.626081,120.27252,高雄市鼓山區萬壽路301號
打狗英國領事館,/hotspots/taiwan_img/打狗英國領事館.jpg,高雄市,鼓山區,22.618866,120.26686,高雄市鼓山區蓮海路20號
高雄85大樓（整修中）,/hotspots/taiwan_img/高雄85大樓（整修中）.jpg,高雄市,苓雅區,22.611047,120.30037,高雄市苓雅區自強三路1號
愛河之心,/hotspots/taiwan_img/愛河之心.jpg,高雄市,三民區,22.652683,120.30316,高雄市三民區博愛一路和同盟一路、二路
茂林國家風景區-新威遊客中心,/hotspots/taiwan_img/茂林國家風景區-新威遊客中心.jpg,高雄市,六龜區,22.891817,120.62343,高雄市六龜區新威里新威171號
高雄港,/hotspots/taiwan_img/高雄港.jpg,高雄市,鼓山區,22.599017,120.28843,高雄市鼓山區臨海二路62號
佛光山,/hotspots/taiwan_img/佛光山.jpg,高雄市,大樹區,22.747516,120.44609,高雄市大樹區興田里興田路153號
香蕉碼頭,/hotspots/taiwan_img/香蕉碼頭.jpg,高雄市,鼓山區,22.618406,120.27856,高雄市鼓山區蓬萊路17號
壽山動物園,/hotspots/taiwan_img/壽山動物園.jpg,高雄市,鼓山區,22.635511,120.27542,高雄市鼓山區萬壽路350號
光之穹頂,/hotspots/taiwan_img/光之穹頂.jpg,高雄市,新興區,22.631388,120.30191,高雄市新興區中山一路115號B1（美麗島捷運站）
高雄孔廟,/hotspots/taiwan_img/高雄孔廟.jpg,高雄市,左營區,22.689238,120.29904,高雄市左營區蓮潭路400號
藤枝國家森林遊樂區,/hotspots/taiwan_img/藤枝國家森林遊樂區.jpg,高雄市,桃源區,23.067729,120.75466,高雄市桃源區寶山巷150號
高雄農場,/hotspots/taiwan_img/高雄農場.jpg,高雄市,美濃區,22.832422,120.53052,高雄市美濃區吉洋里外六寮500號
情人谷,/hotspots/taiwan_img/情人谷.jpg,高雄市,茂林區,22.875865,120.66684,高雄市茂林區
國立科學工藝博物館,/hotspots/taiwan_img/國立科學工藝博物館.jpg,高雄市,三民區,22.640557,120.32171,高雄市三民區九如一路720號
寶來溫泉,/hotspots/taiwan_img/寶來溫泉.jpg,高雄市,六龜區,23.107004,120.70264,高雄市六龜區寶來里
高雄市立美術館,/hotspots/taiwan_img/高雄市立美術館.jpg,高雄市,鼓山區,22.656432,120.28626,高雄市鼓山區美術館路80號
高雄市立歷史博物館,/hotspots/taiwan_img/高雄市立歷史博物館.jpg,高雄市,鹽埕區,22.62695,120.28679,高雄市鹽埕區中正四路272號
義大遊樂世界,/hotspots/taiwan_img/義大遊樂世界.jpg,高雄市,大樹區,22.730787,120.40898,高雄市大樹區學城路一段10號
瑞豐夜市,/hotspots/taiwan_img/瑞豐夜市.jpg,高雄市,左營區,22.666113,120.29978,高雄市左營區裕誠路與南屏路口
高雄美濃-美濃美意情濃,/hotspots/taiwan_img/高雄美濃-美濃美意情濃.jpg,高雄市,美濃區,22.893138,120.51397,高雄市美濃區
高雄燈塔（旗后燈塔）,/hotspots/taiwan_img/高雄燈塔（旗后燈塔）.jpg,高雄市,旗津區,22.615459,120.26495,高雄市旗津區旗下巷34號
不老溫泉,/hotspots/taiwan_img/不老溫泉.jpg,高雄市,六龜區,23.066411,120.68347,高雄市六龜區新發里
城市光廊,/hotspots/taiwan_img/城市光廊.jpg,高雄市,前金區,22.623048,120.29889,高雄市前金區中華三路6號
興中觀光夜市,/hotspots/taiwan_img/興中觀光夜市.jpg,高雄市,苓雅區,22.614854,120.30682,高雄市苓雅區文橫二路
光榮碼頭,/hotspots/taiwan_img/光榮碼頭.jpg,高雄市,苓雅區,22.61842,120.29226,高雄市苓雅區海邊路及新田路口
衛武營國家藝術文化中心,/hotspots/taiwan_img/衛武營國家藝術文化中心.jpg,高雄市,鳳山區,22.623,120.34244,高雄市鳳山區三多一路1號
扇平森林生態科學園,/hotspots/taiwan_img/扇平森林生態科學園.jpg,高雄市,茂林區,22.966686,120.68557,高雄市茂林區扇平林道
原生植物園,/hotspots/taiwan_img/原生植物園.jpg,高雄市,左營區,22.68055,120.3012,高雄市左營區重光路（縱貫鐵路旁）
金獅湖,/hotspots/taiwan_img/金獅湖.jpg,高雄市,三民區,22.662759,120.32959,高雄市三民區金鼎路114巷11-2號
天主教玫瑰堂,/hotspots/taiwan_img/天主教玫瑰堂.jpg,高雄市,苓雅區,22.620324,120.29161,高雄市苓雅區五福三路151號
高雄巨蛋,/hotspots/taiwan_img/高雄巨蛋.jpg,高雄市,左營區,22.668893,120.30279,高雄市左營區博愛二路757號
十八羅漢山,/hotspots/taiwan_img/十八羅漢山.jpg,高雄市,六龜區,22.944361,120.63458,高雄市六龜區省道臺27甲線
元亨寺,/hotspots/taiwan_img/元亨寺.jpg,高雄市,鼓山區,22.639314,120.27796,高雄市鼓山區元亨街7號
洲仔濕地公園,/hotspots/taiwan_img/洲仔濕地公園.jpg,高雄市,左營區,22.680554,120.29821,高雄市左營區環潭路58號
玉山國家公園-梅山遊客中心,/hotspots/taiwan_img/玉山國家公園-梅山遊客中心.jpg,高雄市,桃源區,23.263356,120.82599,高雄市桃源區梅山里梅山巷44-5號
高雄都會公園,/hotspots/taiwan_img/高雄都會公園.jpg,高雄市,楠梓區,22.73199,120.31628,高雄市楠梓區德民路24號
駁二藝術特區,/hotspots/taiwan_img/駁二藝術特區.jpg,高雄市,鹽埕區,22.620005,120.2816,高雄市鹽埕區大勇路1號
半屏湖濕地公園,/hotspots/taiwan_img/半屏湖濕地公園.jpg,高雄市,左營區,22.693325,120.30983,高雄市左營區半屏山後巷
援中港濕地公園,/hotspots/taiwan_img/援中港濕地公園.jpg,高雄市,楠梓區,22.725265,120.26395,高雄市楠梓區堤防道
佛光山佛陀紀念館,/hotspots/taiwan_img/佛光山佛陀紀念館.jpg,高雄市,大樹區,22.75562,120.44524,高雄市大樹區統嶺里統嶺路1號
忠孝觀光夜市,/hotspots/taiwan_img/忠孝觀光夜市.jpg,高雄市,苓雅區,22.621203,120.30762,高雄市苓雅區忠孝二路
高雄市電影館,/hotspots/taiwan_img/高雄市電影館.jpg,高雄市,鹽埕區,22.622435,120.28878,高雄市鹽埕區河西路10號
新客家文化園區,/hotspots/taiwan_img/新客家文化園區.jpg,高雄市,三民區,22.649356,120.29509,高雄市三民區同盟二路215號
高雄市立文化中心,/hotspots/taiwan_img/高雄市立文化中心.jpg,高雄市,苓雅區,22.625777,120.31806,高雄市苓雅區五福一路67號
紅毛港文化園區,/hotspots/taiwan_img/紅毛港文化園區.jpg,高雄市,小港區,22.550687,120.31794,高雄市小港區南星路2808號
高雄市天文教育館,/hotspots/taiwan_img/高雄市天文教育館.jpg,高雄市,小港區,22.56785,120.33769,高雄市小港區平和南路300號
高雄市音樂館,/hotspots/taiwan_img/高雄市音樂館.jpg,高雄市,鹽埕區,22.627425,120.28646,高雄市鹽埕區河西路99號
再見捌捌陸-臺灣眷村文化園區,/hotspots/taiwan_img/再見捌捌陸-臺灣眷村文化園區.jpg,高雄市,左營區,22.69249,120.289,高雄市左營區明德新村2、3、4、10、11號
美濃湖,/hotspots/taiwan_img/美濃湖.jpg,高雄市,美濃區,22.908059,120.55453,高雄市美濃區民權路與泰安路交叉口附近
神威天臺山,/hotspots/taiwan_img/神威天臺山.jpg,高雄市,六龜區,22.889137,120.61765,高雄市六龜區三民路81號
美綠生態園區,/hotspots/taiwan_img/美綠生態園區.jpg,高雄市,美濃區,22.873479,120.58618,高雄市美濃區獅山里竹門14-2號
美濃客家文物館,/hotspots/taiwan_img/美濃客家文物館.jpg,高雄市,美濃區,22.911074,120.55754,高雄市美濃區民族路49-3號
東沙環礁國家公園,/hotspots/taiwan_img/東沙環礁國家公園.jpg,南海東,沙島,20.655335,116.90077,南海東沙島與環礁
十八羅漢山服務區,/hotspots/taiwan_img/十八羅漢山服務區.jpg,高雄市,六龜區,22.950075,120.64184,高雄市六龜區復興巷66號
墾丁國家公園,/hotspots/taiwan_img/墾丁國家公園.jpg,屏東縣,恆春鎮,21.94833,120.77975,屏東縣恆春鎮墾丁路596號
小琉球,/hotspots/taiwan_img/小琉球.jpg,屏東縣,琉球鄉,22.340415,120.37151,屏東縣琉球鄉
大鵬灣國家風景區-大鵬灣遊客中心,/hotspots/taiwan_img/大鵬灣國家風景區-大鵬灣遊客中心.jpg,屏東縣,東港鎮,22.456438,120.4788,屏東縣東港鎮大潭路169號
四重溪溫泉,/hotspots/taiwan_img/四重溪溫泉.jpg,屏東縣,車城鄉,22.095833,120.75027,屏東縣車城鄉
臺灣原住民族文化園區,/hotspots/taiwan_img/臺灣原住民族文化園區.jpg,屏東縣,瑪家鄉,22.706925,120.65291,屏東縣瑪家鄉北葉村風景104號
鵝鑾鼻燈塔,/hotspots/taiwan_img/鵝鑾鼻燈塔.jpg,屏東縣,恆春鎮,21.902214,120.85264,屏東縣恆春鎮鵝鑾里燈塔路90號
雙流國家森林遊樂區,/hotspots/taiwan_img/雙流國家森林遊樂區.jpg,屏東縣,獅子鄉,22.216149,120.79956,屏東縣獅子鄉丹路村丹路二巷23號
恆春古城,/hotspots/taiwan_img/恆春古城.jpg,屏東縣,恆春鎮,22.00086,120.74478,屏東縣恆春鎮
萬金聖母聖殿,/hotspots/taiwan_img/萬金聖母聖殿.jpg,屏東縣,萬巒鄉,22.595081,120.61123,屏東縣萬巒鄉萬興路24號
墾丁國家森林遊樂區,/hotspots/taiwan_img/墾丁國家森林遊樂區.jpg,屏東縣,恆春鎮,21.958963,120.81187,屏東縣恆春鎮公園路201號
國立海洋生物博物館,/hotspots/taiwan_img/國立海洋生物博物館.jpg,屏東縣,車城鄉,22.047071,120.69877,屏東縣車城鄉後灣村後灣路2號
墾丁牧場,/hotspots/taiwan_img/墾丁牧場.jpg,屏東縣,恆春鎮,21.945816,120.80115,屏東縣恆春鎮牧場路1號
茂林國家風景區-禮納里遊客中心,/hotspots/taiwan_img/茂林國家風景區-禮納里遊客中心.jpg,屏東縣,瑪家鄉,22.699775,120.64425,屏東縣瑪家鄉瑪家村和平路一段63號
九棚大沙漠,/hotspots/taiwan_img/九棚大沙漠.jpg,屏東縣,滿州鄉,22.113136,120.88921,屏東縣滿州鄉
瓊麻工業歷史展示區,/hotspots/taiwan_img/瓊麻工業歷史展示區.jpg,屏東縣,恆春鎮,21.96509,120.74177,屏東縣恆春鎮草潭路4號
東港漁港漁產品直銷中心（華僑市場）,/hotspots/taiwan_img/東港漁港漁產品直銷中心（華僑市場）.jpg,屏東縣,東港鎮,22.468089,120.44332,屏東縣東港鎮朝隆路39號
8大森林樂園,/hotspots/taiwan_img/8大森林樂園.jpg,屏東縣,潮州鎮,22.548175,120.55756,屏東縣潮州鎮潮州路800號
貓鼻頭,/hotspots/taiwan_img/貓鼻頭.jpg,屏東縣,恆春鎮,21.922066,120.73796,屏東縣恆春鎮
小墾丁渡假村,/hotspots/taiwan_img/小墾丁渡假村.jpg,屏東縣,滿州鄉,22.026329,120.83212,屏東縣滿州鄉中山路205號
石門古戰場,/hotspots/taiwan_img/石門古戰場.jpg,屏東縣,車城鄉,22.112495,120.76146,屏東縣車城鄉
琉球嶼燈塔（白燈塔）,/hotspots/taiwan_img/琉球嶼燈塔（白燈塔）.jpg,屏東縣,琉球鄉,22.328838,120.36651,屏東縣琉球鄉琉球嶼燈塔
農科園區觀賞水族動物展示廳,/hotspots/taiwan_img/農科園區觀賞水族動物展示廳.jpg,屏東縣,長治鄉,22.715409,120.53208,屏東縣長治鄉園西一路2號3樓
禮納里部落,/hotspots/taiwan_img/禮納里部落.jpg,屏東縣,瑪家鄉,22.701433,120.64645,屏東縣瑪家鄉
東隆宮,/hotspots/taiwan_img/東隆宮.jpg,屏東縣,東港鎮,22.463126,120.44852,屏東縣東港鎮東隆街21-1號
六堆客家文化園區,/hotspots/taiwan_img/六堆客家文化園區.jpg,屏東縣,內埔鄉,22.658422,120.55881,屏東縣內埔鄉建興村信義路588號
濱灣碼頭,/hotspots/taiwan_img/濱灣碼頭.jpg,屏東縣,東港鎮,22.436622,120.47738,屏東縣東港鎮
崎峰濕地公園,/hotspots/taiwan_img/崎峰濕地公園.jpg,屏東縣,林邊鄉,22.43207,120.49007,屏東縣林邊鄉
屏東縣客家文物館,/hotspots/taiwan_img/屏東縣客家文物館.jpg,屏東縣,竹田鄉,22.618267,120.52319,屏東縣竹田鄉西勢村龍門路97號
邱姓河南堂忠實第（邱家古厝）,/hotspots/taiwan_img/邱姓河南堂忠實第（邱家古厝）.jpg,屏東縣,屏東市,22.673188,120.50721,屏東縣屏東市田寮巷26號
鵬灣跨海大橋,/hotspots/taiwan_img/鵬灣跨海大橋.jpg,屏東縣,東港鎮,22.448709,120.4552,屏東縣東港鎮鵬灣跨海大橋
六堆忠義亭,/hotspots/taiwan_img/六堆忠義亭.jpg,屏東縣,竹田鄉,22.617692,120.52338,屏東縣竹田鄉龍門路99號
青洲濱海遊憩區,/hotspots/taiwan_img/青洲濱海遊憩區.jpg,屏東縣,東港鎮,22.447164,120.45581,屏東縣東港鎮南平路631號
烏鬼洞,/hotspots/taiwan_img/烏鬼洞.jpg,屏東縣,琉球鄉,22.330156,120.3558,屏東縣琉球鄉烏鬼洞
山豬溝,/hotspots/taiwan_img/山豬溝.jpg,屏東縣,琉球鄉,22.338438,120.36247,屏東縣琉球鄉山豬溝生態步道
琉球管理站暨遊客中心,/hotspots/taiwan_img/琉球管理站暨遊客中心.jpg,屏東縣,琉球鄉,22.354196,120.38115,屏東縣琉球鄉民族路20-1號
美人洞,/hotspots/taiwan_img/美人洞.jpg,屏東縣,琉球鄉,22.353539,120.37321,屏東縣琉球鄉美人洞
大路觀主題樂園,/hotspots/taiwan_img/大路觀主題樂園.jpg,屏東縣,高樹鄉,22.736358,120.62582,屏東縣高樹鄉廣興村中正路188號
勝興車站,/hotspots/taiwan_img/勝興車站.jpg,苗栗縣,三義鄉,24.38823,120.78205,苗栗縣三義鄉勝興村14鄰勝興88號
龍騰斷橋,/hotspots/taiwan_img/龍騰斷橋.jpg,苗栗縣,三義鄉,24.358435,120.77384,苗栗縣三義鄉龍騰村鄉道苗49線
觀霧國家森林遊樂區,/hotspots/taiwan_img/觀霧國家森林遊樂區.jpg,苗栗縣,泰安鄉,24.505912,121.11406,苗栗縣泰安鄉梅園村8鄰觀霧1-3號
三義木雕博物館,/hotspots/taiwan_img/三義木雕博物館.jpg,苗栗縣,三義鄉,24.406005,120.76118,苗栗縣三義鄉廣盛村廣聲新城88號
泰安溫泉,/hotspots/taiwan_img/泰安溫泉.jpg,苗栗縣,泰安鄉,24.4687,120.96824,苗栗縣泰安鄉錦水村18號
西湖渡假村,/hotspots/taiwan_img/西湖渡假村.jpg,苗栗縣,三義鄉,24.389642,120.76175,苗栗縣三義鄉西湖村西湖11號
馬那邦山,/hotspots/taiwan_img/馬那邦山.jpg,苗栗縣,大湖鄉,24.368722,120.91427,苗栗縣大湖鄉
南庄老街,/hotspots/taiwan_img/南庄老街.jpg,苗栗縣,南庄鄉,24.599318,120.99928,苗栗縣南庄鄉桂花巷
飛牛牧場,/hotspots/taiwan_img/飛牛牧場.jpg,苗栗縣,通霄鎮,24.442032,120.73987,苗栗縣通霄鎮南和里166號
雪霸國家公園-汶水遊客中心,/hotspots/taiwan_img/雪霸國家公園-汶水遊客中心.jpg,苗栗縣,大湖鄉,24.449483,120.87955,苗栗縣大湖鄉富興村水尾坪100號
花露休閒農場,/hotspots/taiwan_img/花露休閒農場.jpg,苗栗縣,卓蘭鎮,24.332778,120.82616,苗栗縣卓蘭鎮西坪里西坪43-3號
苗栗三義-詩情畫意的木雕藝術城,/hotspots/taiwan_img/苗栗三義-詩情畫意的木雕藝術城.jpg,苗栗縣,三義鄉,24.406005,120.76118,苗栗縣三義鄉
雪霸國家公園-雪見遊憩區,/hotspots/taiwan_img/雪霸國家公園-雪見遊憩區.jpg,苗栗縣,泰安鄉,24.424766,121.01333,苗栗縣泰安鄉梅園村7鄰雪見10號
火炎山自然保留區,/hotspots/taiwan_img/火炎山自然保留區.jpg,苗栗縣,三義鄉,24.369396,120.72806,苗栗縣三義鄉、苑裡鎮交界
客家大院,/hotspots/taiwan_img/客家大院.jpg,苗栗縣,銅鑼鄉,24.471078,120.80132,苗栗縣銅鑼鄉龍泉15號
香格里拉樂園,/hotspots/taiwan_img/香格里拉樂園.jpg,苗栗縣,造橋鄉,24.62652,120.84022,苗栗縣造橋鄉乳姑山15-3號
參山國家風景區-南庄遊客中心,/hotspots/taiwan_img/參山國家風景區-南庄遊客中心.jpg,苗栗縣,南庄鄉,24.598073,121.00007,苗栗縣南庄鄉東村大同路43號
塭子頭紅樹林生態保護區,/hotspots/taiwan_img/塭子頭紅樹林生態保護區.jpg,苗栗縣,竹南鎮,24.666496,120.84343,苗栗縣竹南鎮五福大橋下
龍鳳漁港,/hotspots/taiwan_img/龍鳳漁港.jpg,苗栗縣,竹南鎮,24.699778,120.85831,苗栗縣竹南鎮龍鳳里21鄰龍江街369巷15號
功維敘隧道,/hotspots/taiwan_img/功維敘隧道.jpg,苗栗縣,苗栗市,24.554356,120.81096,苗栗縣苗栗市貓裏山公園旁
通霄神社,/hotspots/taiwan_img/通霄神社.jpg,苗栗縣,通霄鎮,24.492372,120.68289,苗栗縣通霄鎮中正路8號
大湖草莓文化館,/hotspots/taiwan_img/大湖草莓文化館.jpg,苗栗縣,大湖鄉,24.42908,120.86811,苗栗縣大湖鄉富興村八寮灣2-4號
苑港觀光漁港,/hotspots/taiwan_img/苑港觀光漁港.jpg,苗栗縣,苑裡鎮,24.4591,120.64726,苗栗縣苑裡鎮
汶水老街,/hotspots/taiwan_img/汶水老街.jpg,苗栗縣,獅潭鄉,24.457698,120.87562,苗栗縣獅潭鄉
明德水庫風景區,/hotspots/taiwan_img/明德水庫風景區.jpg,苗栗縣,頭屋鄉,24.584586,120.88677,苗栗縣頭屋鄉明德路90-1號
臺灣客家文化館,/hotspots/taiwan_img/臺灣客家文化館.jpg,苗栗縣,銅鑼鄉,24.462385,120.77124,苗栗縣銅鑼鄉九湖村銅科南路6號
台灣油礦陳列館,/hotspots/taiwan_img/台灣油礦陳列館.jpg,苗栗縣,公館鄉,24.460023,120.85601,苗栗縣公館鄉開礦村36號
臺灣蠶蜂昆蟲教育園區,/hotspots/taiwan_img/臺灣蠶蜂昆蟲教育園區.jpg,苗栗縣,公館鄉,24.494855,120.82798,苗栗縣公館鄉館南村261號
尚順育樂世界,/hotspots/taiwan_img/尚順育樂世界.jpg,苗栗縣,頭份市,24.68825,120.90463,苗栗縣頭份市育樂街6號
火炎山遊樂區,/hotspots/taiwan_img/火炎山遊樂區.jpg,苗栗縣,苑裡鎮,24.409378,120.69949,苗栗縣苑裡鎮石鎮里錦山8鄰1號
高美濕地,/hotspots/taiwan_img/高美濕地.jpg,臺中市,清水區,24.311951,120.54981,臺中市清水區大甲溪出海口
東勢林場遊樂區,/hotspots/taiwan_img/東勢林場遊樂區.jpg,臺中市,東勢區,24.285313,120.86774,臺中市東勢區勢林街6-1號
逢甲夜市,/hotspots/taiwan_img/逢甲夜市.jpg,臺中市,西屯區,24.175736,120.64539,臺中市西屯區文華路
谷關風景特定區,/hotspots/taiwan_img/谷關風景特定區.jpg,臺中市,和平區,24.203014,121.00369,臺中市和平區東關路一段
武陵農場,/hotspots/taiwan_img/武陵農場.jpg,臺中市,和平區,24.345005,121.3082,臺中市和平區武陵路3-1號
谷關溫泉,/hotspots/taiwan_img/谷關溫泉.jpg,臺中市,和平區,24.203333,121.00916,臺中市和平區東關路一段溫泉巷
國立自然科學博物館,/hotspots/taiwan_img/國立自然科學博物館.jpg,臺中市,北區,24.157233,120.66606,臺中市北區館前路1號
參山國家風景區-梨山遊客中心,/hotspots/taiwan_img/參山國家風景區-梨山遊客中心.jpg,臺中市,和平區,24.254757,121.2512,臺中市和平區梨山里中正路91-2號
精明一街,/hotspots/taiwan_img/精明一街.jpg,臺中市,西區,24.156219,120.65579,臺中市西區精明一街
大雪山國家森林遊樂區,/hotspots/taiwan_img/大雪山國家森林遊樂區.jpg,臺中市,和平區,24.244563,120.97511,臺中市和平區雪山路18號
后里馬場,/hotspots/taiwan_img/后里馬場.jpg,臺中市,后里區,24.298637,120.73582,臺中市后里區寺山路41號
東海大學,/hotspots/taiwan_img/東海大學.jpg,臺中市,西屯區,24.178895,120.60055,臺中市西屯區臺灣大道四段1727號
福壽山農場,/hotspots/taiwan_img/福壽山農場.jpg,臺中市,和平區,24.244921,121.24578,臺中市和平區福壽路29號
八仙山國家森林遊樂區,/hotspots/taiwan_img/八仙山國家森林遊樂區.jpg,臺中市,和平區,24.192249,121.01461,臺中市和平區東關路一段200-8號
國立臺灣美術館,/hotspots/taiwan_img/國立臺灣美術館.jpg,臺中市,西區,24.141186,120.66331,臺中市西區五權西路一段2號
大甲鎮瀾宮,/hotspots/taiwan_img/大甲鎮瀾宮.jpg,臺中市,大甲區,24.345142,120.62348,臺中市大甲區順天路158號
中華夜市,/hotspots/taiwan_img/中華夜市.jpg,臺中市,中區,24.147187,120.67875,臺中市中區中華路一段
梧棲觀光漁港,/hotspots/taiwan_img/梧棲觀光漁港.jpg,臺中市,清水區,24.29341,120.52122,臺中市清水區北堤路30號
臺中民俗公園,/hotspots/taiwan_img/臺中民俗公園.jpg,臺中市,北屯區,24.174689,120.68718,臺中市北屯區旅順路二段73號
臺中公園,/hotspots/taiwan_img/臺中公園.jpg,臺中市,北區,24.144818,120.68447,臺中市北區雙十路一段65號
臺中都會公園,/hotspots/taiwan_img/臺中都會公園.jpg,臺中市,西屯區,24.207827,120.59881,臺中市西屯區都會園路1215巷140號
麗寶樂園,/hotspots/taiwan_img/麗寶樂園.jpg,臺中市,后里區,24.323054,120.69552,臺中市后里區福容路8號
草悟道,/hotspots/taiwan_img/草悟道.jpg,臺中市,西區,24.1484,120.66477,臺中市西區向上北路
參山國家風景區,/hotspots/taiwan_img/參山國家風景區.jpg,臺中市,霧峰區,24.05822,120.69808,臺中市霧峰區中正路738號
東豐自行車綠廊,/hotspots/taiwan_img/東豐自行車綠廊.jpg,臺中市,石岡區,24.276023,120.77879,臺中市石岡區石城街1號
鐵砧山風景特定區,/hotspots/taiwan_img/鐵砧山風景特定區.jpg,臺中市,大甲區,24.359239,120.64998,臺中市大甲區成功路221號
東海藝術街商圈,/hotspots/taiwan_img/東海藝術街商圈.jpg,臺中市,龍井區,24.187969,120.59352,臺中市龍井區國際街
921地震教育園區,/hotspots/taiwan_img/921地震教育園區.jpg,臺中市,霧峰區,24.04226,120.69962,臺中市霧峰區新生路192號
裡冷部落,/hotspots/taiwan_img/裡冷部落.jpg,臺中市,和平區,24.16585,120.95178,臺中市和平區
臺中大甲-名列世界慶典的媽祖文化,/hotspots/taiwan_img/臺中大甲-名列世界慶典的媽祖文化.jpg,臺中市,大甲區,24.344429,120.62701,臺中市大甲區
雪霸國家公園-武陵遊客中心,/hotspots/taiwan_img/雪霸國家公園-武陵遊客中心.jpg,臺中市,和平區,24.353244,121.30978,臺中市和平區武陵路4號
武陵國家森林遊樂區,/hotspots/taiwan_img/武陵國家森林遊樂區.jpg,臺中市,和平區,24.403596,121.30398,臺中市和平區武陵路3號
石岡水壩,/hotspots/taiwan_img/石岡水壩.jpg,臺中市,石岡區,24.28133,120.76942,臺中市石岡區豐勢路1238號
大肚溪口野生動物保護區,/hotspots/taiwan_img/大肚溪口野生動物保護區.jpg,大肚溪,出海,24.207902,120.48157,大肚溪出海口
磺溪書院,/hotspots/taiwan_img/磺溪書院.jpg,臺中市,大肚區,24.150077,120.53932,臺中市大肚區文昌一街10號
臺中港燈塔,/hotspots/taiwan_img/臺中港燈塔.jpg,臺中市,梧棲區,24.288054,120.52333,臺中市梧棲區臺中港一號碼頭遠東倉儲頂端
臺中市港區藝術中心,/hotspots/taiwan_img/臺中市港區藝術中心.jpg,臺中市,清水區,24.269457,120.55766,臺中市清水區忠貞路21號
臺中孔廟,/hotspots/taiwan_img/臺中孔廟.jpg,臺中市,北區,24.154329,120.68995,臺中市北區雙十路二段30號
張連昌薩克斯風博物館‧觀光工廠,/hotspots/taiwan_img/張連昌薩克斯風博物館‧觀光工廠.jpg,臺中市,后里區,24.312384,120.69458,臺中市后里區公安路330-1號
彩虹村,/hotspots/taiwan_img/彩虹村.jpg,臺中市,南屯區,24.133681,120.60983,臺中市南屯區春安路56巷25號
高美燈塔,/hotspots/taiwan_img/高美燈塔.jpg,臺中市,清水區,24.312734,120.55131,臺中市清水區高美路748號
捎來步道,/hotspots/taiwan_img/捎來步道.jpg,臺中市,和平區,24.205635,121.00572,臺中市和平區捎來步道
臺中國家歌劇院,/hotspots/taiwan_img/臺中國家歌劇院.jpg,臺中市,西屯區,24.162649,120.6403,臺中市西屯區惠來路二段101號
參山國家風景區-谷關遊客中心暨入關博物館,/hotspots/taiwan_img/參山國家風景區-谷關遊客中心暨入關博物館.jpg,臺中市,和平區,24.203323,121.00677,臺中市和平區東關路一段102號
立法院議政博物館,/hotspots/taiwan_img/立法院議政博物館.jpg,臺中市,霧峰區,24.05333,120.70008,臺中市霧峰區中正路734號
東勢林業文化園區,/hotspots/taiwan_img/東勢林業文化園區.jpg,臺中市,東勢區,24.243787,120.83365,臺中市東勢區東關路六段1368號
鹿港老街,/hotspots/taiwan_img/鹿港老街.jpg,彰化縣,鹿港鎮,24.055906,120.43289,彰化縣鹿港鎮瑤林街、埔頭街
田尾公路花園,/hotspots/taiwan_img/田尾公路花園.jpg,彰化縣,田尾鄉,23.896006,120.53176,彰化縣田尾鄉民族路一段196號
二水,/hotspots/taiwan_img/二水.jpg,彰化縣,二水鄉,23.81322,120.61805,彰化縣二水鄉
王功漁港（王功漁火碼頭）,/hotspots/taiwan_img/王功漁港（王功漁火碼頭）.jpg,彰化縣,芳苑鄉,23.969635,120.32644,彰化縣芳苑鄉漁港路900號
八卦山大佛風景區,/hotspots/taiwan_img/八卦山大佛風景區.jpg,彰化縣,彰化市,24.078487,120.54882,彰化縣彰化市溫泉路31號
參山國家風景區-八卦山脈生態遊客中心,/hotspots/taiwan_img/參山國家風景區-八卦山脈生態遊客中心.jpg,彰化縣,彰化市,24.078433,120.55566,彰化縣彰化市卦山路13-7號
鹿港天后宮,/hotspots/taiwan_img/鹿港天后宮.jpg,彰化縣,鹿港鎮,24.059307,120.43144,彰化縣鹿港鎮中山路430號
彰化鹿港-工藝、美食、古蹟,/hotspots/taiwan_img/彰化鹿港-工藝、美食、古蹟.jpg,彰化縣,鹿港鎮,24.055906,120.43289,彰化縣鹿港鎮
鹿港龍山寺,/hotspots/taiwan_img/鹿港龍山寺.jpg,彰化縣,彰化市,24.050388,120.43492,彰化縣彰化市溫泉路31號
鹿港民俗文物館,/hotspots/taiwan_img/鹿港民俗文物館.jpg,彰化縣,鹿港鎮,24.053883,120.43648,彰化縣鹿港鎮館前街88號
臺灣玻璃館,/hotspots/taiwan_img/臺灣玻璃館.jpg,彰化縣,鹿港鎮,24.068204,120.39488,彰化縣鹿港鎮鹿工南四路30號
九曲巷,/hotspots/taiwan_img/九曲巷.jpg,彰化縣,鹿港鎮,24.053459,120.43502,彰化縣鹿港鎮金盛巷
芳苑燈塔,/hotspots/taiwan_img/芳苑燈塔.jpg,彰化縣,芳苑鄉,23.971134,120.32416,彰化縣芳苑鄉王功村漁港七路146號
寶藏寺,/hotspots/taiwan_img/寶藏寺.jpg,彰化縣,芬園鄉,24.002206,120.62816,彰化縣芬園鄉彰南路三段135巷100號
半邊井,/hotspots/taiwan_img/半邊井.jpg,彰化縣,鹿港鎮,24.056022,120.43299,彰化縣鹿港鎮瑤林街12號
彰化孔子廟,/hotspots/taiwan_img/彰化孔子廟.jpg,彰化縣,彰化市,24.078519,120.54352,彰化縣彰化市孔門路30號
永靖餘三館,/hotspots/taiwan_img/永靖餘三館.jpg,彰化縣,永靖鄉,23.912368,120.5422,彰化縣永靖鄉中山路一段451巷2號
白蘭氏健康博物館,/hotspots/taiwan_img/白蘭氏健康博物館.jpg,彰化縣,鹿港鎮,24.07767,120.40058,彰化縣鹿港鎮鹿工路18號
鹿港文武廟,/hotspots/taiwan_img/鹿港文武廟.jpg,彰化縣,鹿港鎮,24.048868,120.43803,彰化縣鹿港鎮青雲路2號
意樓,/hotspots/taiwan_img/意樓.jpg,彰化縣,鹿港鎮,24.052972,120.43526,彰化縣鹿港鎮金盛巷
十宜樓,/hotspots/taiwan_img/十宜樓.jpg,彰化縣,鹿港鎮,24.053425,120.43517,彰化縣鹿港鎮中山路147號
清水岩寺,/hotspots/taiwan_img/清水岩寺.jpg,彰化縣,社頭鄉,23.886355,120.61389,彰化縣社頭鄉清水岩路1號
扇形車庫,/hotspots/taiwan_img/扇形車庫.jpg,彰化縣,彰化市,24.085948,120.54017,彰化縣彰化市彰美路一段1號
清水岩生態展示中心,/hotspots/taiwan_img/清水岩生態展示中心.jpg,彰化縣,社頭鄉,23.885706,120.61367,彰化縣社頭鄉清水岩路1-1號
樂活襪之鄉博物館,/hotspots/taiwan_img/樂活襪之鄉博物館.jpg,彰化縣,社頭鄉,23.903237,120.60223,彰化縣社頭鄉社石路559號
福井鐵道文物館,/hotspots/taiwan_img/福井鐵道文物館.jpg,彰化縣,社頭鄉,23.896964,120.58521,彰化縣社頭鄉社斗路一段336號
台灣手套博物館,/hotspots/taiwan_img/台灣手套博物館.jpg,彰化縣,社頭鄉,23.902685,120.60321,彰化縣社頭鄉織襪一路8號
二林鎮,/hotspots/taiwan_img/二林鎮.jpg,彰化縣,二林鎮,23.899804,120.37426,彰化縣二林鎮
芳苑鄉,/hotspots/taiwan_img/芳苑鄉.jpg,彰化縣,芳苑鄉,23.924354,120.32038,彰化縣芳苑鄉
彰化市,/hotspots/taiwan_img/彰化市.jpg,彰化縣,彰化市,24.080905,120.54225,彰化縣彰化市
二水自行車道,/hotspots/taiwan_img/二水自行車道.jpg,彰化縣,二水鄉,23.814388,120.61744,彰化縣二水鄉
日月潭國家風景區-向山遊客中心,/hotspots/taiwan_img/日月潭國家風景區-向山遊客中心.jpg,南投縣,魚池鄉,23.851592,120.9017,南投縣魚池鄉中山路599號
集集火車站,/hotspots/taiwan_img/集集火車站.jpg,南投縣,集集鎮,23.826451,120.78489,南投縣集集鎮民生路75號
杉林溪森林生態渡假園區,/hotspots/taiwan_img/杉林溪森林生態渡假園區.jpg,南投縣,竹山鎮,23.636845,120.79465,南投縣竹山鎮溪山路6號
埔里,/hotspots/taiwan_img/埔里.jpg,南投縣,埔里鎮,23.966537,120.96918,南投縣埔里鎮
東埔溫泉,/hotspots/taiwan_img/東埔溫泉.jpg,南投縣,信義鄉,23.561439,120.93097,南投縣信義鄉東埔村
清境農場,/hotspots/taiwan_img/清境農場.jpg,南投縣,仁愛鄉,24.05851,121.16282,南投縣仁愛鄉仁和路170號
九族文化村,/hotspots/taiwan_img/九族文化村.jpg,南投縣,魚池鄉,23.869105,120.94788,南投縣魚池鄉大林村金天巷45號
水里蛇窯,/hotspots/taiwan_img/水里蛇窯.jpg,南投縣,水里鄉,23.800656,120.86465,南投縣水里鄉頂崁村回窯路16號
合歡山國家森林遊樂區,/hotspots/taiwan_img/合歡山國家森林遊樂區.jpg,南投縣,仁愛鄉,24.142411,121.28418,南投縣仁愛鄉
中台禪寺,/hotspots/taiwan_img/中台禪寺.jpg,南投縣,埔里鎮,24.009088,120.94459,南投縣埔里鎮中台路2號
溪頭自然教育園區,/hotspots/taiwan_img/溪頭自然教育園區.jpg,南投縣,鹿谷鄉,23.674517,120.79725,南投縣鹿谷鄉森林巷9號
霧社,/hotspots/taiwan_img/霧社.jpg,南投縣,仁愛鄉,24.022184,121.13204,南投縣仁愛鄉
風櫃斗,/hotspots/taiwan_img/風櫃斗.jpg,南投縣,信義鄉,23.669081,120.85659,南投縣信義鄉
奧萬大國家森林遊樂區,/hotspots/taiwan_img/奧萬大國家森林遊樂區.jpg,南投縣,仁愛鄉,23.953599,121.17708,南投縣仁愛鄉親愛村大安路153號
玉山國家公園-水里遊客中心,/hotspots/taiwan_img/玉山國家公園-水里遊客中心.jpg,南投縣,水里鄉,23.813066,120.85034,南投縣水里鄉中山路一段515號
猫囒山步道,/hotspots/taiwan_img/猫囒山步道.jpg,南投縣,魚池鄉,23.877198,120.91288,南投縣魚池鄉中山路292號
惠蓀林場,/hotspots/taiwan_img/惠蓀林場.jpg,南投縣,仁愛鄉,24.091197,121.03372,南投縣仁愛鄉新生村山林巷1號
集集鎮 - 火車印象‧踩風集集,/hotspots/taiwan_img/集集鎮 - 火車印象‧踩風集集.jpg,南投縣,集集鎮,23.826499,120.78488,南投縣集集鎮
日月潭伊達邵,/hotspots/taiwan_img/日月潭伊達邵.jpg,南投縣,魚池鄉,23.848909,120.92946,南投縣魚池鄉文化街127號（伊達邵遊客中心）
臺灣地理中心碑,/hotspots/taiwan_img/臺灣地理中心碑.jpg,南投縣,埔里鎮,23.973837,120.97969,南投縣埔里鎮和平東路
日月潭文武廟,/hotspots/taiwan_img/日月潭文武廟.jpg,南投縣,魚池鄉,23.869967,120.92755,南投縣魚池鄉中正路63號
日月潭拉魯島,/hotspots/taiwan_img/日月潭拉魯島.jpg,南投縣,魚池鄉,23.85568,120.91133,南投縣魚池鄉拉魯島
太魯閣國家公園-合歡山管理站,/hotspots/taiwan_img/太魯閣國家公園-合歡山管理站.jpg,南投縣,仁愛鄉,24.162132,121.28712,南投縣仁愛鄉榮星村松原巷11號
車埕車站,/hotspots/taiwan_img/車埕車站.jpg,南投縣,水里鄉,23.832637,120.86574,南投縣水里鄉民權巷2號
日月潭涵碧步道,/hotspots/taiwan_img/日月潭涵碧步道.jpg,南投縣,魚池鄉,23.862239,120.90869,南投縣魚池鄉涵碧步道
泰雅渡假村,/hotspots/taiwan_img/泰雅渡假村.jpg,南投縣,國姓鄉,24.068322,120.94329,南投縣國姓鄉北港村北原路56-2號
鹿谷鄉農會茶葉文化館,/hotspots/taiwan_img/鹿谷鄉農會茶葉文化館.jpg,南投縣,鹿谷鄉,23.741304,120.75699,南投縣鹿谷鄉中正路一段231號
鳳凰谷鳥園生態園區,/hotspots/taiwan_img/鳳凰谷鳥園生態園區.jpg,南投縣,鹿谷鄉,23.729885,120.79213,南投縣鹿谷鄉仁義路1-9號
八通關古道,/hotspots/taiwan_img/八通關古道.jpg,南投縣,信義鄉,23.556201,120.9266,南投縣信義鄉
九九峰自然保留區,/hotspots/taiwan_img/九九峰自然保留區.jpg,南投縣,草屯鎮,23.994339,120.77168,南投縣草屯鎮
日月潭玄奘寺,/hotspots/taiwan_img/日月潭玄奘寺.jpg,南投縣,魚池鄉,23.84736,120.91737,南投縣魚池鄉日月村中正路389號
日月潭慈恩塔,/hotspots/taiwan_img/日月潭慈恩塔.jpg,南投縣,魚池鄉,23.842025,120.92084,南投縣魚池鄉
參山國家風景區-松柏嶺遊客中心,/hotspots/taiwan_img/參山國家風景區-松柏嶺遊客中心.jpg,南投縣,名間鄉,23.833922,120.63599,南投縣名間鄉名松路二段181號
日月潭玄光寺,/hotspots/taiwan_img/日月潭玄光寺.jpg,南投縣,魚池鄉,23.852096,120.9136,南投縣魚池鄉日月村中正路338號
牛耳藝術渡假村,/hotspots/taiwan_img/牛耳藝術渡假村.jpg,南投縣,埔里鎮,23.965617,120.94323,南投縣埔里鎮中山路四段1號
特有生物研究保育中心,/hotspots/taiwan_img/特有生物研究保育中心.jpg,南投縣,集集鎮,23.828355,120.80121,南投縣集集鎮民生東路1號
國立臺灣工藝研究發展中心,/hotspots/taiwan_img/國立臺灣工藝研究發展中心.jpg,南投縣,草屯鎮,23.980774,120.69185,南投縣草屯鎮中正路573號
木生昆蟲博物館,/hotspots/taiwan_img/木生昆蟲博物館.jpg,南投縣,埔里鎮,23.964272,120.94533,南投縣埔里鎮南村路6-2號
王英信美術館,/hotspots/taiwan_img/王英信美術館.jpg,南投縣,草屯鎮,23.989118,120.8072,南投縣草屯鎮雙冬里中正路25號
茶二指故事館,/hotspots/taiwan_img/茶二指故事館.jpg,南投縣,名間鄉,23.824907,120.6439,南投縣名間鄉埔中巷32-1號
貯木池,/hotspots/taiwan_img/貯木池.jpg,南投縣,水里鄉,23.834521,120.86611,南投縣水里鄉民權巷110-2號
日月潭水社碼頭,/hotspots/taiwan_img/日月潭水社碼頭.jpg,南投縣,魚池鄉,23.864501,120.91191,南投縣魚池鄉水社碼頭
林班道體驗工廠,/hotspots/taiwan_img/林班道體驗工廠.jpg,南投縣,水里鄉,23.832276,120.86543,南投縣水里鄉車埕村民權巷101-5號
車埕木業展示館,/hotspots/taiwan_img/車埕木業展示館.jpg,南投縣,水里鄉,23.833774,120.86587,南投縣水里鄉民權巷110-2號
日月潭纜車,/hotspots/taiwan_img/日月潭纜車.jpg,南投縣,魚池鄉,23.852248,120.93473,南投縣魚池鄉日月村中正路102號
向山自行車道,/hotspots/taiwan_img/向山自行車道.jpg,南投縣,魚池鄉,23.852933,120.90173,南投縣魚池鄉中山路
日月潭國家風景區-車埕遊客中心,/hotspots/taiwan_img/日月潭國家風景區-車埕遊客中心.jpg,南投縣,水里鄉,23.832053,120.86594,南投縣水里鄉車埕村民權巷127號
水社商圈,/hotspots/taiwan_img/水社商圈.jpg,南投縣,魚池鄉,23.864969,120.91153,南投縣魚池鄉名勝街
日月潭伊達邵碼頭,/hotspots/taiwan_img/日月潭伊達邵碼頭.jpg,南投縣,魚池鄉,23.84974,120.92967,南投縣魚池鄉伊達邵碼頭
日月潭水蛙頭步道,/hotspots/taiwan_img/日月潭水蛙頭步道.jpg,南投縣,魚池鄉,23.857507,120.93976,南投縣魚池鄉水蛙頭步道
日月潭玄光碼頭,/hotspots/taiwan_img/日月潭玄光碼頭.jpg,南投縣,魚池鄉,23.8527,120.9132,南投縣魚池鄉玄光碼頭
日月潭松柏崙步道,/hotspots/taiwan_img/日月潭松柏崙步道.jpg,南投縣,魚池鄉,23.868935,120.9291,南投縣魚池鄉松柏崙步道
日月潭大竹湖步道,/hotspots/taiwan_img/日月潭大竹湖步道.jpg,南投縣,魚池鄉,23.863331,120.94082,南投縣魚池鄉大竹湖步道
九九峰動物樂園,/hotspots/taiwan_img/九九峰動物樂園.jpg,南投縣,草屯鎮,23.96221,120.70748,南投縣草屯鎮富寮里富頂路一段726巷99號
北港朝天宮,/hotspots/taiwan_img/北港朝天宮.jpg,雲林縣,北港鎮,23.567805,120.30464,雲林縣北港鎮中山路178號
草嶺風景區,/hotspots/taiwan_img/草嶺風景區.jpg,雲林縣,古坑鄉,23.583575,120.69738,雲林縣古坑鄉草嶺村
西螺大橋,/hotspots/taiwan_img/西螺大橋.jpg,雲林縣,西螺鎮,23.811288,120.46065,雲林縣西螺鎮建興路
劍湖山世界主題樂園,/hotspots/taiwan_img/劍湖山世界主題樂園.jpg,雲林縣,古坑鄉,23.617947,120.57833,雲林縣古坑鄉大湖口67號
華山休閒農業區,/hotspots/taiwan_img/華山休閒農業區.jpg,雲林縣,古坑鄉,23.59497,120.59724,雲林縣古坑鄉華山村41號
塭港堆燈塔,/hotspots/taiwan_img/塭港堆燈塔.jpg,雲林縣,口湖鄉,23.446015,120.04061,雲林縣口湖鄉外傘頂洲
綠色隧道景觀公園,/hotspots/taiwan_img/綠色隧道景觀公園.jpg,雲林縣,古坑鄉,23.659291,120.54098,雲林縣古坑鄉湳仔村湳仔路
太平老街,/hotspots/taiwan_img/太平老街.jpg,雲林縣,斗六市,23.708506,120.54183,雲林縣斗六市太平路
雲嘉南濱海國家風景區-口湖遊客中心,/hotspots/taiwan_img/雲嘉南濱海國家風景區-口湖遊客中心.jpg,雲林縣,口湖鄉,23.548206,120.18227,雲林縣口湖鄉梧南村光明路163號
台西漁港,/hotspots/taiwan_img/台西漁港.jpg,雲林縣,台西鄉,23.704888,120.17393,雲林縣台西鄉海埔地海堤外側
椬梧滯洪池,/hotspots/taiwan_img/椬梧滯洪池.jpg,雲林縣,口湖鄉,23.541502,120.17352,雲林縣口湖鄉
虎尾鐵橋,/hotspots/taiwan_img/虎尾鐵橋.jpg,雲林縣,虎尾鎮,23.701737,120.43718,雲林縣虎尾鎮
