title,address,Latitude,Longtitude,image
正濱漁港,"Taiwan, 正濱漁港",25.15269779,121.7662044,HotSpot_pic/正濱漁港.jpg
望幽谷,"Badouzi, Zhongzheng District, Keelung City, Taiwan 202",25.1458024,121.7983034,HotSpot_pic/望幽谷.jpg
彭佳嶼,"Pengjia Islet, Taiwan",25.6288053,122.0794835,HotSpot_pic/彭佳嶼.jpg
芳裕農場,"No. 51, Dacheng St, Qidu District, Keelung City, Taiwan 206",25.106624,121.685437,HotSpot_pic/芳裕農場.jpg
藍色公路,"103, Taiwan, Taipei City, Datong District, 台北市大同區",25.0574511,121.5064523,HotSpot_pic/藍色公路.jpg
仙洞巖,"203, Taiwan, Keelung City, Zhongshan District, 仙洞巖",25.145717,121.7481605,HotSpot_pic/仙洞巖.jpg
基隆海洋廣場,"Zhongyi Rd, Ren’ai District, Keelung City, Taiwan 200",25.1310222,121.741348,HotSpot_pic/基隆海洋廣場.jpg
基隆河壺穴景觀,"Keelung River, Taiwan",25.05906484,121.6509395,HotSpot_pic/基隆河壺穴景觀.jpg
槓子寮砲台,"Lane 141, Jiaozhong St, Xinyi District, Keelung City, Taiwan 201",25.1437076,121.7819019,HotSpot_pic/槓子寮砲台.jpg
八斗子漁港,"Badouzi, Zhongzheng District, Keelung City, Taiwan",25.1411143,121.7962777,HotSpot_pic/八斗子漁港.jpg
碧砂漁港,"Beining Rd, Zhongzheng District, Keelung City, Taiwan 202",25.1430274,121.7888768,HotSpot_pic/碧砂漁港.jpg
基隆潮境公園,"Chaojing Park, No. 61, Lane 369, Beining Rd, Zhongzheng District, Keelung City, Taiwan 202",25.1434517,121.8034149,HotSpot_pic/基隆潮境公園.jpg
基隆港,"Inner Harbor of Keelung, Taiwan",25.13888064,121.7508907,HotSpot_pic/基隆港.jpg
瑪陵坑,"206, Taiwan, 基隆市七堵區瑪陵坑",25.107068,121.692812,HotSpot_pic/瑪陵坑.jpg
情人湖公園,"Lovers Lake Park, 底大武崙山山腰 Lane 208, Jijinyi Rd, Anle District, Keelung City, Taiwan 204",25.1567262,121.7059256,HotSpot_pic/情人湖公園.jpg
和平島公園,"202, Taiwan, Keelung City, Zhongzheng District, 和平島公園",25.1564,121.76482,HotSpot_pic/和平島公園.jpg
基隆國立海洋科技博物館,"No. 367號, Beining Rd, Zhongzheng District, Keelung City, Taiwan 202",25.1400236,121.7985672,HotSpot_pic/基隆國立海洋科技博物館.jpg
二砂灣砲台(海門天險),"Shoushan Rd, Zhongzheng District, Keelung City, Taiwan 202",25.1389415,121.7564572,HotSpot_pic/二砂灣砲台(海門天險).jpg
暖暖運動公園,"No. 15號, Dongding Rd, Nuannuan District, Keelung City, Taiwan 205",25.0947775,121.7429221,HotSpot_pic/暖暖運動公園.jpg
十分老街,"No. 81號, Shifen St, Pingxi District, New Taipei City, Taiwan 226",25.0426687,121.7766757,HotSpot_pic/十分老街.jpg
平溪老街,"Jingtong St, Pingxi District, New Taipei City, Taiwan 226",25.0237927,121.723513,HotSpot_pic/平溪老街.jpg
北海岸濱海公路,"Binhai, Tianjin, China",39.0031999,117.71071,HotSpot_pic/北海岸濱海公路.jpg
猴硐貓村,"Houtong Cat Village, Ruifang District, New Taipei City, Taiwan 224",25.0869527,121.8274974,HotSpot_pic/猴硐貓村.jpg
西門町,"Shi-men Ting, Wanhua District, Taipei City, Taiwan 108",25.0446664,121.5063096,HotSpot_pic/西門町.jpg
八煙聚落,"Jinshan District, New Taipei City, Taiwan 208",25.189818,121.588892,HotSpot_pic/八煙聚落.jpg
十分瀑布,"226, Taiwan, New Taipei City, Pingxi District, 乾坑10號",25.0489711,121.7874553,HotSpot_pic/十分瀑布.jpg
永樂市場・大稻程廣場,"No. 21號, Section 1, Dihua St, Datong District, Taipei City, Taiwan 103",25.0548835,121.5104598,HotSpot_pic/永樂市場・大稻程廣場.jpg
四四南村,"No. 52號, Songqin St, Xinyi District, Taipei City, Taiwan 110",25.0315454,121.5618806,HotSpot_pic/四四南村.jpg
水源市場,"No. 92, Section 4, Roosevelt Rd, Zhongzheng District, Taipei City, Taiwan 100",25.013569,121.5349937,HotSpot_pic/水源市場.jpg
三創生活園區,"No. 2號, Section 3, Civic Blvd, Zhongzheng District, Taipei City, Taiwan 100013",25.0454978,121.5313187,HotSpot_pic/三創生活園區.jpg
中和烘爐地,"235, Taiwan, 新北市中和區烘爐地",24.9725741,121.4987377,HotSpot_pic/中和烘爐地.jpg
農禪寺,"No. 89, Lane 65, Daye Rd, Beitou District, Taipei City, Taiwan 112",25.1225471,121.4953795,HotSpot_pic/農禪寺.jpg
Taipei 101購物中心,"No. 45 號, City Hall Rd, Xinyi District, Taipei City, Taiwan 110",25.0341222,121.5640212,HotSpot_pic/Taipei 101購物中心.jpg
瑞芳火車站,"Ruifang Train Station, No. 82, Section 3, Mingdeng Rd, Ruifang District, New Taipei City, Taiwan 224",25.1087356,121.8059692,HotSpot_pic/瑞芳火車站.jpg
饒河街觀光夜市,"Raohe St, Songshan District, Taipei City, Taiwan 105",25.0508854,121.5774891,HotSpot_pic/饒河街觀光夜市.jpg
黃金瀑布,"Jinshui Rd, Ruifang District, New Taipei City, Taiwan 224",25.1171278,121.8614895,HotSpot_pic/黃金瀑布.jpg
擎天崗,"No. 246, Lane 101, Jingshan Rd, Shilin District, Taipei City, Taiwan 111",25.165756,121.5753508,HotSpot_pic/擎天崗.jpg
菁桐老街,"Jingtong St, Pingxi District, New Taipei City, Taiwan 226",25.0237927,121.723513,HotSpot_pic/菁桐老街.jpg
角板山行館（角板山公園）,"Jiaoban Mt. Park, No. 2, Zhongzheng Rd, Fuxing District, Taoyuan City, Taiwan 336",24.813974,121.3506816,HotSpot_pic/角板山行館（角板山公園）.jpg
竹圍漁港,"337, Taiwan, Taoyuan City, Dayuan District, 漁港路451巷25號",25.117158,121.2444776,HotSpot_pic/竹圍漁港.jpg
達觀山(拉拉山)風景特定區,"336, Taiwan, Taoyuan City, Fuxing District, 11鄰205號拉拉山神木群步道",24.710668,121.4377528,HotSpot_pic/達觀山(拉拉山)風景特定區.jpg
小烏來天空步道,"336, Taiwan, Taoyuan City, Fuxing District, 4-6號",24.7903264,121.3754843,HotSpot_pic/小烏來天空步道.jpg
三民公園(三民運動公園),"330, Taiwan, Taoyuan City, Taoyuan District, Section 1, Sanmin Rd, 218號 三民運動公園管理中心",25.000307,121.3201791,HotSpot_pic/三民公園(三民運動公園).jpg
大溪橋（大溪情人橋）,"Daxi Bridge, No. 273, Section 1, Rui'an Rd, Daxi District, Taoyuan City, Taiwan 335",24.8848382,121.2834562,HotSpot_pic/大溪橋（大溪情人橋）.jpg
巴陵鐵塔,"Fuxing District, Taoyuan City, Taiwan 336",24.6847606,121.3951582,HotSpot_pic/巴陵鐵塔.jpg
愛情故事館,"No. 1037, Section 1, Fuxing Rd, Daxi District, Taoyuan City, Taiwan 335",24.841228,121.289988,HotSpot_pic/愛情故事館.jpg
石門水庫風景區,"336, Taiwan, Taoyuan City, Daxi District, 環湖路一段68號",24.8131925,121.2459708,HotSpot_pic/石門水庫風景區.jpg
桃源仙谷(暫停營業),"336, Taiwan, Taoyuan City, Fuxing District, 羅馬路六段295號",24.7877656,121.2785836,HotSpot_pic/桃源仙谷(暫停營業).jpg
彩虹瀑布,"Pahang, Malaysia",3.9221667,102.9473333,HotSpot_pic/彩虹瀑布.jpg
基國派老教堂,"No. 1號, Jiguo Industry Rd, Fuxing District, Taoyuan City, Taiwan 336",24.8401529,121.3476743,HotSpot_pic/基國派老教堂.jpg
永安漁港,"No. 1165號, Section 3, Zhongshan W Rd, Xinwu District, Taoyuan City, Taiwan 327",24.987719,121.0157884,HotSpot_pic/永安漁港.jpg
龍潭渴望園區,"325, Taiwan, 桃園市龍潭區渴望園區",24.8372785,121.1887271,HotSpot_pic/龍潭渴望園區.jpg
復興橋‧羅浮橋,"336, Taiwan, Taoyuan City, Fuxing District, Fuxing Bridge, 復興橋",24.8012015,121.3663274,HotSpot_pic/復興橋‧羅浮橋.jpg
拉拉山旅遊服務中心,"336, Taiwan, Taoyuan City, Fuxing District, 華陵村7鄰29號",24.6797779,121.3839644,HotSpot_pic/拉拉山旅遊服務中心.jpg
巴陵古道生態園區（幽靜步道）,"336, Taiwan, Taoyuan City, Fuxing District, 巴陵古道生態園區",24.679591,121.3831577,HotSpot_pic/巴陵古道生態園區（幽靜步道）.jpg
八德埤塘生態公園,"Bade Pond Ecology Park, No. 1315號, Xingfeng Rd, Bade District, Taoyuan City, Taiwan 334",24.9416499,121.3112514,HotSpot_pic/八德埤塘生態公園.jpg
小烏來風景特定區,"Little Wu-Lai, Fuxing District, Taoyuan City, Taiwan 336",24.7861403,121.3655989,HotSpot_pic/小烏來風景特定區.jpg
東安古橋,"Dong'an Old Bridge, Zhongshan E Rd, Guanxi Township, Hsinchu County, Taiwan 306",24.7908574,121.1798009,HotSpot_pic/東安古橋.jpg
普天宮(大關公廟),"No. 66號, Lane 306, Gaofeng Rd, East District, Hsinchu City, Taiwan 300",24.7804561,120.9788097,HotSpot_pic/普天宮(大關公廟).jpg
新竹市護城河親水公園,"300, Taiwan, Hsinchu City, East District, Zhongyang Rd, 與號府後街 交叉口 Hsinchu Moat Park",24.8064709,120.9706268,HotSpot_pic/新竹市護城河親水公園.jpg
內灣老街,"Zhongzheng Rd, Hengshan Township, Hsinchu County, Taiwan 312",24.7052146,121.1823397,HotSpot_pic/內灣老街.jpg
北埔冷泉,"Beipu Cold Spring, Beipu Township, Hsinchu County, Taiwan 314",24.6629944,121.0724295,HotSpot_pic/北埔冷泉.jpg
獅頭山風景區,"Emei Township, Hsinchu County, Taiwan 315",24.6551438,121.0245361,HotSpot_pic/獅頭山風景區.jpg
五指山,"Wuzhishan City, Hainan, China",18.7751499,109.51696,HotSpot_pic/五指山.jpg
司馬庫斯神木群,"Smangus Giant Trees, Jianshi Township, Hsinchu County, Taiwan 313",24.5751392,121.3663543,HotSpot_pic/司馬庫斯神木群.jpg
宇老觀景台,"313, Taiwan, Hsinchu County, Jianshi Township, 玉峰村1鄰1號",24.667653,121.281963,HotSpot_pic/宇老觀景台.jpg
王禪老祖鬼谷仙師廟,"314, Taiwan, Hsinchu County, Beipu Township, 埔尾村王禪老祖路1號",24.7141459,121.0439988,HotSpot_pic/王禪老祖鬼谷仙師廟.jpg
北埔老街,"Beipu St, Beipu Township, Hsinchu County, Taiwan 314",24.6998161,121.0572201,HotSpot_pic/北埔老街.jpg
新竹火車站,"300 Hsinchu, No. 445號, Section 2, Zhonghua Rd, East District, Hsinchu City, Taiwan 300",24.8015877,120.9715883,HotSpot_pic/新竹火車站.jpg
張學良文化園區（張學良故居）,"311, Taiwan, Hsinchu County, Wufeng Township, 256-6號",24.5724819,121.1054503,HotSpot_pic/張學良文化園區（張學良故居）.jpg
湖口老街,"Hukoulao St, Hukou Township, Hsinchu County, Taiwan 303",24.8768721,121.0551483,HotSpot_pic/湖口老街.jpg
內灣合興車站（愛情火車站）,"Neiwan Line, Hsinchu County, Taiwan",24.722336,121.1296038,HotSpot_pic/內灣合興車站（愛情火車站）.jpg
新竹都城隍廟,"No. 75號, Zhongshan Rd, North District, Hsinchu City, Taiwan 300",24.8045047,120.9658784,HotSpot_pic/新竹都城隍廟.jpg
綠世界生態農場(原綠世界休閒農場),"Green World Ecological Farm, No. 20號隘子7鄰 Beipu Township, Hsinchu County, Taiwan 314",24.6988096,121.071096,HotSpot_pic/綠世界生態農場(原綠世界休閒農場).jpg
鯉魚潭水庫,"367, Taiwan, Miaoli County, Zhuolan Township, 106號",24.3415543,120.7823325,HotSpot_pic/鯉魚潭水庫.jpg
向天湖,"353, Taiwan, 苗栗縣南庄鄉向天湖",24.5831367,121.0343163,HotSpot_pic/向天湖.jpg
明德水庫風景區,"No. 90-1, Mingde Rd, Touwu Township, Miaoli County, Taiwan 362",24.584586,120.886779,HotSpot_pic/明德水庫風景區.jpg
大湖草莓文化館(大湖酒莊),"364, Taiwan, Miaoli County, Dahu Township, 2-4號",24.4290872,120.8681222,HotSpot_pic/大湖草莓文化館(大湖酒莊).jpg
功維敘隧道（苗栗隧道）,"360, Taiwan, Miaoli County, Miaoli City, 三湖道76-5號",24.5543568,120.8109621,HotSpot_pic/功維敘隧道（苗栗隧道）.jpg
火炎山溫泉遊樂區(原台灣少林寺),Taiwan,23.69781,120.960515,HotSpot_pic/火炎山溫泉遊樂區(原台灣少林寺).jpg
台灣油礦陳列館(出磺坑),"363, Taiwan, Miaoli County, Gongguan Township, 36號",24.4600489,120.8560819,HotSpot_pic/台灣油礦陳列館(出磺坑).jpg
南庄老街-桂花巷,"Nanzhuang Township, Miaoli County, Taiwan 353",24.5993184,120.9992815,HotSpot_pic/南庄老街-桂花巷.jpg
外埔漁港,"Wai-pu Fishing Harbor, Taiwan",24.6514213,120.7712716,HotSpot_pic/外埔漁港.jpg
崎頂隧道,"350, Taiwan, Miaoli County, Zhunan Township, 崎頂隧道",24.7212986,120.8703164,HotSpot_pic/崎頂隧道.jpg
日新島,"Rixindao, No. 54-6, Mingde Rd, Touwu Township, Miaoli County, Taiwan 362",24.5879486,120.8903206,HotSpot_pic/日新島.jpg
西湖渡假村,"367, Taiwan, Miaoli County, Sanyi Township, 西湖11號",24.389642,120.761752,HotSpot_pic/西湖渡假村.jpg
雅聞七里香玫瑰森林,"No. 226, Mingde Rd, Touwu Township, Miaoli County, Taiwan 362",24.6000795,120.8852242,HotSpot_pic/雅聞七里香玫瑰森林.jpg
南庄老街-康濟吊橋（南庄吊橋）,"Nanzhuang Township, Miaoli County, Taiwan 353",24.5993184,120.9992815,HotSpot_pic/南庄老街-康濟吊橋（南庄吊橋）.jpg
龍騰斷橋,"367, Taiwan, Miaoli County, Sanyi Township, 苗49鄉道",24.3585179,120.7740367,HotSpot_pic/龍騰斷橋.jpg
火炎山,"358, Taiwan, 苗栗縣苑裡鎮火炎山",24.362964,120.725818,HotSpot_pic/火炎山.jpg
南庄老街,"No. 6, 文化路南庄鄉苗栗縣 Taiwan 353",24.6002826,120.9991081,HotSpot_pic/南庄老街.jpg
勤美誠品綠園道(草悟道),"403, Taiwan, Taichung City, West District, Gongyi Rd, 68號草悟道",24.1513417,120.6632029,HotSpot_pic/勤美誠品綠園道(草悟道).jpg
大里龍貓車站,"No. 133, Qiaocheng Rd, Dali District, Taichung City, Taiwan 412",24.1234021,120.689934,HotSpot_pic/大里龍貓車站.jpg
霧峰落羽松秘境,"Wufeng District, Taichung City, Taiwan 413",24.044318,120.7350013,HotSpot_pic/霧峰落羽松秘境.jpg
柳川藍帶水岸(親水河岸),"400, Taiwan, Taichung City, Central District, Section 3, Liuchuan E Rd, 7號柳川藍帶水岸",24.1425932,120.6770791,HotSpot_pic/柳川藍帶水岸(親水河岸).jpg
心之芳庭,"No. 1號, Fangting Rd, Beitun District, Taichung City, Taiwan 406",24.1622626,120.7676748,HotSpot_pic/心之芳庭.jpg
國立自然科學博物館,"No. 1號, Guanqian Rd, North District, Taichung City, Taiwan 404",24.1572335,120.6660606,HotSpot_pic/國立自然科學博物館.jpg
大安海水浴場濱海樂園,"439, Taiwan, Taichung City, Da'an District, Beishan Rd, 86號巷1號",24.384118,120.5848747,HotSpot_pic/大安海水浴場濱海樂園.jpg
新社莊園（新社古堡）,"No. 23號, Xiezhong St, Xinshe District, Taichung City, Taiwan 426",24.1880699,120.8133518,HotSpot_pic/新社莊園（新社古堡）.jpg
梧棲觀光漁市,"Wuqi District, Taichung City, Taiwan 435",24.2490793,120.5386546,HotSpot_pic/梧棲觀光漁市.jpg
酒桶山,"411, Taiwan, 台中市太平區酒桶山",24.137973,120.817832,HotSpot_pic/酒桶山.jpg
台中動漫彩繪巷,"Lane 100, Linsen Rd, West District, Taichung City, Taiwan 403",24.1383507,120.6704456,HotSpot_pic/台中動漫彩繪巷.jpg
后豐鐵馬道,"Section 3, Guofeng Rd, Fengyuan District, Taichung City, Taiwan 420",24.271924,120.7402111,HotSpot_pic/后豐鐵馬道.jpg
台中觀光酒廠,"Taichung City, Taiwan",24.1477358,120.6736482,HotSpot_pic/台中觀光酒廠.jpg
台灣省議會紀念園區,"Democratic Assembly Affairs Park (Former Taiwan Provincial Consultative Council), No. 734號, Zhongzheng Rd, Wufeng District, Taichung City, Taiwan 413015",24.0545471,120.6968843,HotSpot_pic/台灣省議會紀念園區.jpg
審計新村,"403, Taiwan, 台中市西區審計新村",24.1446116,120.6628411,HotSpot_pic/審計新村.jpg
第二市場,"No. 87號, Section 2, Sanmin Rd, Central District, Taichung City, Taiwan 400",24.1424184,120.678757,HotSpot_pic/第二市場.jpg
泰安舊火車站(泰安鐵道文化園區),"Tai'an Old railway station, Houli District, Taichung City, Taiwan 421",24.3228605,120.749065,HotSpot_pic/泰安舊火車站(泰安鐵道文化園區).jpg
益健乳羊牧場,"No. 63號, Lane 1215, Duhuiyuan Rd, Xitun District, Taichung City, Taiwan 407",24.2052456,120.5955525,HotSpot_pic/益健乳羊牧場.jpg
鹿港摸乳巷,"505, Taiwan, Changhua County, Lukang Township, 摸乳巷",24.0517509,120.4322058,HotSpot_pic/鹿港摸乳巷.jpg
八卦山大佛風景區,"No. 31號, Wenquan Rd, Changhua City, Changhua County, Taiwan 500",24.0784879,120.5488211,HotSpot_pic/八卦山大佛風景區.jpg
芳苑燈塔（王功燈塔）,"528, Taiwan, Changhua County, Fangyuan Township, 漁港七路146號",23.9711299,120.3241636,HotSpot_pic/芳苑燈塔（王功燈塔）.jpg
挑水古道,"502, Taiwan, Changhua County, Fenyuan Township, 挑水古道",23.9675669,120.6344765,HotSpot_pic/挑水古道.jpg
清水岩森林遊憩區,"Qingshuiyan Forest Recreation Area, Shetou Township, Changhua County, Taiwan 511",23.8851605,120.6136601,HotSpot_pic/清水岩森林遊憩區.jpg
高鐵彰化站,"Changhua Station, No. 99, Section 2, Zhanqu Rd, Tianzhong Township, Changhua County, Taiwan 520",23.87424,120.57453,HotSpot_pic/高鐵彰化站.jpg
百果山風景區,"510, Taiwan, 彰化縣員林市百果山",23.95002,120.605557,HotSpot_pic/百果山風景區.jpg
塭仔村漁港（塭仔港）,"Yugang Rd, Xianxi Township, Changhua County, Taiwan 507",24.1256366,120.4379647,HotSpot_pic/塭仔村漁港（塭仔港）.jpg
藤山步道,"Tengshan Trail, No. 394, Yuannan Rd, Yuanlin City, Changhua County, Taiwan 510",23.9366362,120.6275835,HotSpot_pic/藤山步道.jpg
王功漁港（王功漁火碼頭）,"528, Taiwan, Changhua County, Fangyuan Township, 彰化縣芳苑鄉",23.968552,120.32592,HotSpot_pic/王功漁港（王功漁火碼頭）.jpg
永樂街形象商圈,"Yongle St, Changhua City, Changhua County, Taiwan 500",24.0765957,120.5410112,HotSpot_pic/永樂街形象商圈.jpg
不老泉,"No. 1, Section 2, Gongyuan Rd, Changhua City, Changhua County, Taiwan 500",24.0744913,120.557074,HotSpot_pic/不老泉.jpg
芬園台14丁線．黃花風鈴木花季,"Taiwan, Changhua County, Fenyuan Township, 台14丁線",23.9861051,120.6407649,HotSpot_pic/芬園台14丁線．黃花風鈴木花季.jpg
王功風力發電區,"528, Taiwan, Changhua County, Fangyuan Township, 王功小型風力發電廠",23.9836384,120.3394314,HotSpot_pic/王功風力發電區.jpg
鹿港天后宮,"No. 430號, Zhongshan Rd, Lukang Township, Changhua County, Taiwan 505",24.0593071,120.4314407,HotSpot_pic/鹿港天后宮.jpg
福田賞桐生態園區,"No. 638號, Fuxing Rd, Changhua City, Changhua County, Taiwan 500",24.0421455,120.5957163,HotSpot_pic/福田賞桐生態園區.jpg
松柏嶺-受天宮,"No. 118號, Songshan St, Mingjian Township, Nantou County, Taiwan 551",23.8318501,120.6308432,HotSpot_pic/松柏嶺-受天宮.jpg
大崙山觀光茶園（銀杏森林、銀杏林觀光茶園）,"558, Taiwan, Nantou County, Lugu Township, 羊灣巷800-1號",23.6799302,120.7626458,HotSpot_pic/大崙山觀光茶園（銀杏森林、銀杏林觀光茶園）.jpg
台灣地理中心碑,"No. 421號, Section 1, Zhongshan Rd, Puli Township, Nantou County, Taiwan 545",23.9739881,120.9798175,HotSpot_pic/台灣地理中心碑.jpg
埔里酒廠,"Puli Township, Nantou County, Taiwan 545",23.9932872,120.9646866,HotSpot_pic/埔里酒廠.jpg
九份二山．傾斜屋,"Jiufenershan National Earthquake Memorial Place, 石巷 Guoxing Township, Nantou County, Taiwan 544",23.9607343,120.8499299,HotSpot_pic/九份二山．傾斜屋.jpg
碧湖(萬大水庫),"Wan-ta Reservoir, Ren’ai Township, Nantou County, Taiwan 546",23.9991367,121.1352393,HotSpot_pic/碧湖(萬大水庫).jpg
廬山溫泉,"Lu-shan Hot Spring, Ren’ai Township, Nantou County, Taiwan 546",24.0225,121.1863889,HotSpot_pic/廬山溫泉.jpg
新中橫塔塔加遊憩區,"556, Taiwan, 南投縣信義鄉塔塔加鞍部",23.4758352,120.8999932,HotSpot_pic/新中橫塔塔加遊憩區.jpg
溪頭自然教育園區（溪頭森林遊樂區）,"558, Taiwan, Nantou County, Lugu Township, 森林巷9號",23.6745178,120.7972515,HotSpot_pic/溪頭自然教育園區（溪頭森林遊樂區）.jpg
天空之橋（微笑天梯）,"Houtanjing Sky Bridge, No. 300號, Houtanjing St, Nantou City, Nantou County, Taiwan 540",23.9084478,120.6315992,HotSpot_pic/天空之橋（微笑天梯）.jpg
坪瀨琉璃光之橋健行園區．彩虹玻璃吊橋,"556, Taiwan, Nantou County, Xinyi Township, Yushan Rd, 47號 信義鄉愛國村玻璃吊橋",23.6967966,120.8545567,HotSpot_pic/坪瀨琉璃光之橋健行園區．彩虹玻璃吊橋.jpg
寶湖宮地母廟,"No. 94, Pipa Rd, Puli Township, Nantou County, Taiwan 545",23.9514518,120.9894656,HotSpot_pic/寶湖宮地母廟.jpg
糯米橋,"Guoxing Rd, Guoxing Township, Nantou County, Taiwan 544",24.0585088,120.9065125,HotSpot_pic/糯米橋.jpg
靈巖山寺,"No. 105-1, Zhongzheng Rd, Puli Township, Nantou County, Taiwan 545",23.9399765,120.9768655,HotSpot_pic/靈巖山寺.jpg
草嶺風景區（草嶺地質公園）,"Caolingdizhi Park, Gukeng Township, Yunlin County, Taiwan 646",23.5849905,120.694597,HotSpot_pic/草嶺風景區（草嶺地質公園）.jpg
建德寺地母廟（靈台山建德寺）,"646, Taiwan, Yunlin County, Gukeng Township, 5號",23.6539825,120.5913978,HotSpot_pic/建德寺地母廟（靈台山建德寺）.jpg
雲林布袋戲館,"No. 498號, Section 1, Linsen Rd, Huwei Township, Yunlin County, Taiwan 632",23.709297,120.4335627,HotSpot_pic/雲林布袋戲館.jpg
古坑綠色隧道,"646, Taiwan, Yunlin County, Gukeng Township, 湳仔路",23.659291,120.5409846,HotSpot_pic/古坑綠色隧道.jpg
樟湖風景區,"No. 646, Qingshuixi Bridge, Gukeng Township, Yunlin County, Taiwan 646",23.5996609,120.6562883,HotSpot_pic/樟湖風景區.jpg
雲林高鐵站,"Taiwan High Speed Rail Yunlin Station, No. 301, Zhangqian E Rd, Huwei Township, Yunlin County, Taiwan 632",23.7363,120.4165,HotSpot_pic/雲林高鐵站.jpg
四湖參天宮,"No. 87號, Guansheng Rd, Sihu Township, Yunlin County, Taiwan 654",23.6396214,120.2264538,HotSpot_pic/四湖參天宮.jpg
他里霧文化園區,"No. 27號, Nanchang Rd, Dounan Township, Yunlin County, Taiwan 630",23.6739587,120.4813354,HotSpot_pic/他里霧文化園區.jpg
雲中街文創聚落,"No. 12～18號, Yunzhong St, Douliu City, Yunlin County, Taiwan 640",23.7087884,120.5397954,HotSpot_pic/雲中街文創聚落.jpg
馬鳴山鎮安宮,"634, Taiwan, Yunlin County, Baozhong Township, 馬鳴村鎮安路31號",23.6996206,120.2782884,HotSpot_pic/馬鳴山鎮安宮.jpg
澄霖沉香味道森林館,"632, Taiwan, Yunlin County, Huwei Township, 惠來75-6號",23.730013,120.495705,HotSpot_pic/澄霖沉香味道森林館.jpg
雅聞峇里海岸觀光工廠,"No. 333號, Zhongxing Rd, Douliu City, Yunlin County, Taiwan 640",23.7297802,120.5695953,HotSpot_pic/雅聞峇里海岸觀光工廠.jpg
千巧谷牛樂園牧場,"No. 182之32號, Dongxing Rd, Lunbei Township, Yunlin County, Taiwan 637",23.7611476,120.3655914,HotSpot_pic/千巧谷牛樂園牧場.jpg
五年千歲公園,"Wunian Qiansui Park, No. 31號, Zhenan Rd, Baozhong Township, Yunlin County, Taiwan 63442",23.6988507,120.2774771,HotSpot_pic/五年千歲公園.jpg
萡子寮濱海遊憩區(萡子寮漁港),"Taiwan, 箔子寮漁港",23.61873975,120.1369172,HotSpot_pic/萡子寮濱海遊憩區(萡子寮漁港).jpg
青埔落羽松秘境,"632, Taiwan, Yunlin County, Huwei Township, 青埔2之29號青埔落羽松秘境",23.7015105,120.4456054,HotSpot_pic/青埔落羽松秘境.jpg
湖山岩,"640, Taiwan, 雲林縣斗六市湖山岩",23.708865,120.606964,HotSpot_pic/湖山岩.jpg
半天岩紫雲寺,"602, Taiwan, Chiayi County, Fanlu Township, 6號",23.462381,120.595275,HotSpot_pic/半天岩紫雲寺.jpg
蘭潭水庫(蘭潭風景區),"Xiaoya Rd, East District, Chiayi City, Taiwan 600",23.4664382,120.4792412,HotSpot_pic/蘭潭水庫(蘭潭風景區).jpg
瑞里風景區,"Meishan Township, Chiayi County, Taiwan 603",23.5400401,120.6678971,HotSpot_pic/瑞里風景區.jpg
東石漁港,"Taiwan, 東石漁港",23.45071858,120.1376391,HotSpot_pic/東石漁港.jpg
達娜伊谷自然生態公園,"Danaiku Nature Ecological Park, No. 51號3鄰 Alishan Township, Chiayi County, Taiwan 605",23.3788726,120.6779253,HotSpot_pic/達娜伊谷自然生態公園.jpg
布袋漁港觀光漁市,"No. 3號, Zhongshan Rd, Budai Township, Chiayi County, Taiwan 625",23.379479,120.155564,HotSpot_pic/布袋漁港觀光漁市.jpg
嘉義樹木園,"Chiayi Botanical Garden, No. 270王田里山子頂 East District, Chiayi City, Taiwan 600",23.4839311,120.4678016,HotSpot_pic/嘉義樹木園.jpg
觀音瀑布,"Zhuqi Township, Chiayi County, Taiwan 604",23.5070789,120.6211259,HotSpot_pic/觀音瀑布.jpg
阿里山森林遊樂區,"605, Taiwan, Chiayi County, Alishan Township, 59號 Alishan National Forest Recreation Area",23.5109539,120.8034992,HotSpot_pic/阿里山森林遊樂區.jpg
梅山公園,"Meishan Park, No. 9-1號梅仔山 Meishan Township, Chiayi County, Taiwan 603",23.5787816,120.5570154,HotSpot_pic/梅山公園.jpg
圓潭自然生態園區(圓潭遊客中心),"603, Taiwan, Chiayi County, Zhuqi Township, 86之1號",23.5294985,120.6595534,HotSpot_pic/圓潭自然生態園區(圓潭遊客中心).jpg
奮起湖,"Fenchihu Lake, Chiayi County, Taiwan",23.5064295,120.7005044,HotSpot_pic/奮起湖.jpg
阿里山森林鐵路車庫園區,"No. 2號, Linsen W Rd, East District, Chiayi City, Taiwan 600",23.4863428,120.4512608,HotSpot_pic/阿里山森林鐵路車庫園區.jpg
阿里山神木遺跡,"Alishan Township, Chiayi County, Taiwan 605",23.5191561,120.8066055,HotSpot_pic/阿里山神木遺跡.jpg
森林之歌,"Wenhua Rd, East District, Chiayi City, Taiwan 600",23.486649,120.448254,HotSpot_pic/森林之歌.jpg
竹崎親水公園,"Zhuqi Riverside Park, Zhonghua Rd, Zhuqi Township, Chiayi County, Taiwan 604",23.524267,120.5471835,HotSpot_pic/竹崎親水公園.jpg
文峰遊客中心,"604, Taiwan, Chiayi County, Zhuqi Township, 22號",23.516703,120.5937635,HotSpot_pic/文峰遊客中心.jpg
臺南正統鹿耳門聖母廟,"No. 160號, Chengan Rd, Annan District, Tainan City, Taiwan 70958",23.0680234,120.1272414,HotSpot_pic/臺南正統鹿耳門聖母廟.jpg
二寮觀日亭,"713, Taiwan, Tainan City, Zuozhen District, 二寮",22.9927444,120.4098726,HotSpot_pic/二寮觀日亭.jpg
四草生態綠色隧道,"No. 360號, Dazhong Rd, Annan District, Tainan City, Taiwan 709",23.0196399,120.1361465,HotSpot_pic/四草生態綠色隧道.jpg
尖山埤水庫（江南渡假村）,"736, Taiwan, Tainan City, Liuying District, 旭山里60號",23.2642127,120.3941046,HotSpot_pic/尖山埤水庫（江南渡假村）.jpg
老塘湖藝術村,"726, Taiwan, Tainan City, Xuejia District, 豐和里美豐49-26號",23.2191779,120.2061603,HotSpot_pic/老塘湖藝術村.jpg
玄空法寺,"No. 270號, Zhonghua Rd, Nanxi District, Tainan City, Taiwan 715",23.1821354,120.4825457,HotSpot_pic/玄空法寺.jpg
德元埤荷蘭村,"736, Taiwan, Tainan City, Liuying District, 100號",23.2630654,120.3397063,HotSpot_pic/德元埤荷蘭村.jpg
台鉅美妝觀光工廠,"No. 589號, Section 3, Zhongzheng Rd, Rende District, Tainan City, Taiwan 717",22.988605,120.257086,HotSpot_pic/台鉅美妝觀光工廠.jpg
林默娘公園,"Lin Mo-niang Park, No. 250號, Anyi Rd, Anping District, Tainan City, Taiwan 708",22.9938758,120.1571958,HotSpot_pic/林默娘公園.jpg
草山月世界308高地,"845, Taiwan, Kaohsiung City, Neimen District, 洪代表桶仔雞",22.9770264,120.4425481,HotSpot_pic/草山月世界308高地.jpg
南鯤鯓代天府,"72746, Taiwan, Tainan City, Beimen District, 里976號",23.2859811,120.143304,HotSpot_pic/南鯤鯓代天府.jpg
觀夕平台,"Yubin Rd, Anping District, Tainan City, Taiwan 708",22.9901592,120.1470983,HotSpot_pic/觀夕平台.jpg
鹿耳門天后宮,"No. 136, Mazugong 1st St, Annan District, Tainan City, Taiwan 709",23.0372099,120.1244579,HotSpot_pic/鹿耳門天后宮.jpg
延平老街（安平老街）,"Yanping St, Anping District, Tainan City, Taiwan 708",23.0007174,120.1616449,HotSpot_pic/延平老街（安平老街）.jpg
黃金海岸,"Gold Coast QLD, Australia",-28.016667,153.4,HotSpot_pic/黃金海岸.jpg
關子嶺天梯及空中廊道,"732, Taiwan, Tainan City, Baihe District, 20、",23.3384414,120.5051436,HotSpot_pic/關子嶺天梯及空中廊道.jpg
林百貨,"No. 63號, Section 2, Zhongyi Rd, West Central District, Tainan City, Taiwan 700",22.9917925,120.2025232,HotSpot_pic/林百貨.jpg
喜樹老街,"Lane 254, Xishu Rd, South District, Tainan City, Taiwan 702",22.9403891,120.1777971,HotSpot_pic/喜樹老街.jpg
彩虹山大佛(六龜大佛),"No. 27-1號, Xinkai Rd, Liugui District, Kaohsiung City, Taiwan 84441",23.0554402,120.6775326,HotSpot_pic/彩虹山大佛(六龜大佛).jpg
真愛碼頭,"Yancheng District, Kaohsiung City, Taiwan 803",22.6184858,120.2897204,HotSpot_pic/真愛碼頭.jpg
旗津貝殼館,"805, Taiwan, Kaohsiung City, Qijin District, Qijin 3rd Rd, 887號2樓",22.6011443,120.2742485,HotSpot_pic/旗津貝殼館.jpg
塔關山登山口,"Taguanshan Trailhead, 848 Taoyuan District, Kaohsiung City, Taiwan 848",23.2664593,120.93937,HotSpot_pic/塔關山登山口.jpg
錫安山,"Mt Zion, Jerusalem, Israel",31.7709233,35.2284626,HotSpot_pic/錫安山.jpg
葫蘆谷,"844, Taiwan, 高雄市六龜區葫蘆谷",22.928362,120.655483,HotSpot_pic/葫蘆谷.jpg
妙通寺,"Japan, 〒453-0855 Aichi, Nagoya, Nakamura Ward, Kasumorichō, 3-chōme−２４−２４",35.1564676,136.8591245,HotSpot_pic/妙通寺.jpg
寶來溫泉,"Pao-lai Hot Spring, Liugui District, Kaohsiung City, Taiwan 844",23.1036111,120.7102778,HotSpot_pic/寶來溫泉.jpg
黃蝶翠谷,"Huangdie Cuigu, Meinong District, Kaohsiung City, Taiwan 843",22.9336111,120.5955556,HotSpot_pic/黃蝶翠谷.jpg
興達港、情人碼頭,"Section 1, Dongfang Rd, Jiading District, Kaohsiung City, Taiwan 852",22.8773532,120.2112527,HotSpot_pic/興達港、情人碼頭.jpg
藤枝森林遊樂區,"Tengjhih National Forest Recreation Area, No. 150號寶山巷 Taoyuan District, Kaohsiung City, Taiwan 848",23.0677024,120.754703,HotSpot_pic/藤枝森林遊樂區.jpg
大世界國際村（已歇業）,"No. 15, Cailiao Rd, Gangshan District, Kaohsiung City, Taiwan 824",22.818744,120.3441495,HotSpot_pic/大世界國際村（已歇業）.jpg
大關山隧道,"Taiwan, 大關山隧道",23.264196,120.9579983,HotSpot_pic/大關山隧道.jpg
彩虹教堂,"No. 990, Qijin 3rd Rd, Qijin District, Kaohsiung City, Taiwan 805",22.6023263,120.2734327,HotSpot_pic/彩虹教堂.jpg
月世界泥火山,"823, Taiwan, Kaohsiung City, Tianliao District, 崇德里",22.8898868,120.3867493,HotSpot_pic/月世界泥火山.jpg
屏東山川琉璃吊橋,"901, Taiwan, Pingtung County, Sandimen Township, 瑪家鄉 Shan-Chuan Suspension Bridge",22.7092015,120.6534588,HotSpot_pic/屏東山川琉璃吊橋.jpg
泗林健走步道,"Silin walking trail, Chaozhou Rd, Chaozhou Township, Pingtung County, Taiwan 920",22.5494046,120.5557081,HotSpot_pic/泗林健走步道.jpg
萬里桐,"Wanlitong, Hengchun Township, Pingtung County, Taiwan 946",21.997786,120.7057429,HotSpot_pic/萬里桐.jpg
風吹沙,"946, Taiwan, 屏東縣恆春鎮風吹砂",21.9486515,120.8409788,HotSpot_pic/風吹沙.jpg
國立海洋生物博物館,"No. 2, Houwan Rd, Checheng Township, Pingtung County, Taiwan 944",22.0460173,120.6989058,HotSpot_pic/國立海洋生物博物館.jpg
白砂灣,"946, Taiwan, Pingtung County, Hengchun Township, 白砂路36號",21.9375712,120.7148185,HotSpot_pic/白砂灣.jpg
龍磐公園,"Longpan Park, No. 946台26線 Hengchun Township, Pingtung County, Taiwan 946",21.9272344,120.8479628,HotSpot_pic/龍磐公園.jpg
林後四林平地森林園區,"Linhousilin Forest Park, No. 221-1號, Chaoyi Rd, Chaozhou Township, Pingtung County, Taiwan 920",22.5386812,120.590396,HotSpot_pic/林後四林平地森林園區.jpg
紅柴坑,"Hongchaikeng, Hengchun Township, Pingtung County, Taiwan",21.9719264,120.7164003,HotSpot_pic/紅柴坑.jpg
鯉魚山（泥火山）,"932, Taiwan, 屏東縣新園鄉鯉魚山泥火山",22.5540637,120.4512246,HotSpot_pic/鯉魚山（泥火山）.jpg
墾丁大街,"No. 134號, Kending Rd, Hengchun Township, Pingtung County, Taiwan 946",21.9456406,120.7969316,HotSpot_pic/墾丁大街.jpg
枋寮漁港,"Taiwan, 枋寮漁港",22.36306936,120.59293,HotSpot_pic/枋寮漁港.jpg
台灣原住民文化園區,"903, Taiwan, Pingtung County, Majia Township, 風景巷104號903",22.7069254,120.6529188,HotSpot_pic/台灣原住民文化園區.jpg
大鵬灣國家風景區,"No. 169, Datan Rd, Donggang Township, Pingtung County, Taiwan 928",22.4570111,120.4789281,HotSpot_pic/大鵬灣國家風景區.jpg
屏鵝公路,"966, Taiwan, Taitung County, Daren Township, 台26線",22.2732852,120.8906961,HotSpot_pic/屏鵝公路.jpg
鵬灣跨海大橋,"Dapeng Bay Bridge, Pengwankuahai Bridge, Donggang Township, Pingtung County, Taiwan 928",22.4489468,120.4548127,HotSpot_pic/鵬灣跨海大橋.jpg
南洋風高腳屋,"No. 306號, Fufeng Rd, Neipu Township, Pingtung County, Taiwan 912",22.6188371,120.5458204,HotSpot_pic/南洋風高腳屋.jpg
幾米主題廣場（幾米公園）,"Jimmy Park, No. 240號, Section 1, Yixing Rd, Yilan City, Yilan County, Taiwan 260",24.7526264,121.7570038,HotSpot_pic/幾米主題廣場（幾米公園）.jpg
外澳沙灘,"Waiao Beach, No. 6號, Section 2, Binhai Rd, Toucheng Township, Yilan County, Taiwan 261",24.8778107,121.8430714,HotSpot_pic/外澳沙灘.jpg
頭城老街,"Heping St, Toucheng Township, Yilan County, Taiwan 261",24.8569701,121.8241581,HotSpot_pic/頭城老街.jpg
呿呿噹森林（丟丟噹森林）,"No. 236, Section 1, Yixing Rd, Yilan City, Yilan County, Taiwan 260",24.7546366,121.7570734,HotSpot_pic/呿呿噹森林（丟丟噹森林）.jpg
冬山河親水公園（冬山河河濱公園）,"Dongshan River Water Park, No. 2, Section 2, Qinhe Rd, Wujie Township, Yilan County, Taiwan 268",24.6729935,121.8158161,HotSpot_pic/冬山河親水公園（冬山河河濱公園）.jpg
大溪漁港,"Ta-hsi Fishing Harbor, Toucheng Township, Yilan County, Taiwan 261",24.9411111,121.9013889,HotSpot_pic/大溪漁港.jpg
梅花湖,"269, Taiwan, 宜蘭縣冬山鄉梅花湖",24.6427251,121.7330825,HotSpot_pic/梅花湖.jpg
三清宮,"Sanqing Pavilion, Dachuan District, Dazhou, Sichuan, China, 635063",31.116184,107.273038,HotSpot_pic/三清宮.jpg
幸福轉運站,"No. 117, Section 1, Yixing Rd, Yilan City, Yilan County, Taiwan 260",24.7517331,121.756183,HotSpot_pic/幸福轉運站.jpg
豆腐岬,"Su'ao Township, Yilan County, Taiwan 270",24.583822,121.8714345,HotSpot_pic/豆腐岬.jpg
烏石魚港 （烏石港遊客中心）,"261, Taiwan, Yilan County, Toucheng Township, 烏石港路15之30號",24.8692805,121.8348659,HotSpot_pic/烏石魚港 （烏石港遊客中心）.jpg
伯朗咖啡城堡（金車咖啡城堡、金車宜蘭頭城造林休閒農場）,"No. 95號, Shikong Rd, Toucheng Township, Yilan County, Taiwan 261",24.8846282,121.8388434,HotSpot_pic/伯朗咖啡城堡（金車咖啡城堡、金車宜蘭頭城造林休閒農場）.jpg
湯圍溝溫泉公園,"Tangweigou Hot Spring Park, No. 99-11號, Deyang Rd, Jiaoxi Township, Yilan County, Taiwan 262",24.8285141,121.7699558,HotSpot_pic/湯圍溝溫泉公園.jpg
南方澳漁港,"Nan-fang-ao Fishing Harbor, Taiwan",24.58198313,121.8683579,HotSpot_pic/南方澳漁港.jpg
朝陽漁港,"Taiwan, 朝陽漁港",24.46101538,121.8210302,HotSpot_pic/朝陽漁港.jpg
宜蘭壯圍過嶺保安宮（太子廟）,"No. 302號, Section 3, Zhuangbin Rd, Zhuangwei Township, Yilan County, Taiwan 263",24.7565655,121.8163477,HotSpot_pic/宜蘭壯圍過嶺保安宮（太子廟）.jpg
蘭陽博物館,"No. 750, Section 3, Qingyun Rd, Toucheng Township, Yilan County, Taiwan 261",24.8686561,121.8327408,HotSpot_pic/蘭陽博物館.jpg
金車礁溪蘭花園附設動植物生態館,"262, Taiwan, Yilan County, Jiaoxi Township, Chilidan Rd, 103-1號金車礁溪蘭花園附設動植物生態館",24.8207801,121.784266,HotSpot_pic/金車礁溪蘭花園附設動植物生態館.jpg
宜蘭火車站（幾米火車站）,"26043 Yilan Station, No. 1號, Guangfu Rd, Yilan City, Yilan County, Taiwan 260",24.7552923,121.7583174,HotSpot_pic/宜蘭火車站（幾米火車站）.jpg
楓林步道,"973, Taiwan, 花蓮縣吉安鄉福興村",23.969439,121.5484039,HotSpot_pic/楓林步道.jpg
花蓮觀光漁市（花蓮區漁會）,"970, Taiwan, Hualien County, Hualien City, 港濱37號",23.9963352,121.638082,HotSpot_pic/花蓮觀光漁市（花蓮區漁會）.jpg
立川漁場,"974, Taiwan, Hualien County, Shoufeng Township, 魚池45號",23.864656,121.5222562,HotSpot_pic/立川漁場.jpg
慕谷慕魚生態廊道,"972, Taiwan, Hualien County, Xiulin Township, 花專1線",23.9765718,121.4715241,HotSpot_pic/慕谷慕魚生態廊道.jpg
崇德海灘,"972, Taiwan, 花蓮縣秀林鄉崇德村",24.1928905,121.6628728,HotSpot_pic/崇德海灘.jpg
花蓮鐵道文化園區,"No. 71號, Zhongshan Rd, Hualien City, Hualien County, Taiwan 970",23.9746392,121.6105358,HotSpot_pic/花蓮鐵道文化園區.jpg
鹽寮漁港沙灘,"Taiwan, 鹽寮漁港",23.82905964,121.5864984,HotSpot_pic/鹽寮漁港沙灘.jpg
七星潭風景區,"Qixingtan Scenic Area, No. 5號, Lane 79, Qixing St, Xincheng Township, Hualien County, Taiwan 971",24.0314268,121.6271764,HotSpot_pic/七星潭風景區.jpg
東華大學,"No. 1號, Section 2, Daxue Rd, Shoufeng Township, Hualien County, Taiwan 974",23.8927746,121.5441612,HotSpot_pic/東華大學.jpg
豐濱天空步道(親不知子斷崖),"977, Taiwan, 花蓮縣豐濱鄉親不知子斷崖",23.675376,121.545538,HotSpot_pic/豐濱天空步道(親不知子斷崖).jpg
新城老街,"Bo'ai Rd, Xincheng Township, Hualien County, Taiwan 971",24.1263473,121.6518393,HotSpot_pic/新城老街.jpg
慈濟靜思堂,"359, Jln Kepong, 52000 Kuala Lumpur, Wilayah Persekutuan Kuala Lumpur, Malaysia",3.2095517,101.6495568,HotSpot_pic/慈濟靜思堂.jpg
玉里神社,"Xibian St, Yuli Township, Hualien County, Taiwan 981",23.3347263,121.3088267,HotSpot_pic/玉里神社.jpg
太平洋3D地景公園,"Pacific Park, No. 138號, Haibin St, Hualien City, Hualien County, Taiwan 970",23.9773665,121.6178505,HotSpot_pic/太平洋3D地景公園.jpg
東大門夜市,"No. 415號, Chongqing Rd, Hualien City, Hualien County, Taiwan 970",23.9728958,121.6098425,HotSpot_pic/東大門夜市.jpg
花蓮舊酒廠（花蓮文化創意園區）,"No. 144號, Zhonghua Rd, Hualien City, Hualien County, Taiwan 970",23.976244,121.6048577,HotSpot_pic/花蓮舊酒廠（花蓮文化創意園區）.jpg
花蓮港景觀橋,"No. 8號, Gangkou Rd, Hualien City, Hualien County, Taiwan 970",23.9926825,121.6359167,HotSpot_pic/花蓮港景觀橋.jpg
靜浦北迴歸線界標,"977, Taiwan, Hualien County, Fengbin Township, 台11線",23.4513623,121.4962333,HotSpot_pic/靜浦北迴歸線界標.jpg
琵琶湖,"Lake Biwa, Shiga, Japan",35.3456394,136.1709012,HotSpot_pic/琵琶湖.jpg
台東霍爾的移動城堡,"No. 1, Zhongzheng Rd, Taitung City, Taitung County, Taiwan 950",22.7512319,121.1588971,HotSpot_pic/台東霍爾的移動城堡.jpg
台東豐源國小,"No. 392, Section 4, Zhonghua Rd, Taitung City, Taitung County, Taiwan 950",22.7299509,121.1083071,HotSpot_pic/台東豐源國小.jpg
綠島梅花鹿生態園區,"951, Taiwan, Taitung County, Lvdao Township, 草山201號綠島梅花鹿生態園區 Sika Deer Ecological Park",22.6712131,121.4954528,HotSpot_pic/綠島梅花鹿生態園區.jpg
富岡港口,"Fugang Fishery Harbor, Taitung City, Taitung County, Taiwan 950",22.791866,121.192703,HotSpot_pic/富岡港口.jpg
國際地標,"Haibin Park, Datong Rd, Taitung City, Taitung County, Taiwan 950",22.7531204,121.1646423,HotSpot_pic/國際地標.jpg
海濱公園,"Japan, 〒312-0012 Ibaraki, Hitachinaka, Mawatari, 字大沼605-4 Hitachi Seaside Park",36.405864,140.5964868,HotSpot_pic/海濱公園.jpg
國立台灣史前文化博物館,"950, Taiwan, Taitung County, Taitung City, 博物館路1號",22.760712,121.091361,HotSpot_pic/國立台灣史前文化博物館.jpg
伯朗大道(金城武大道),"958, Taiwan, Taitung County, Chishang Township, 錦新三號道路",23.0988065,121.2130022,HotSpot_pic/伯朗大道(金城武大道).jpg
綠島南寮漁港,"Nan-liao Fishing Harbor, Taiwan",22.65918929,121.4740042,HotSpot_pic/綠島南寮漁港.jpg
活水湖,"Mahengheng Blvd, Taitung City, Taitung County, Taiwan 950",22.7652114,121.1647656,HotSpot_pic/活水湖.jpg
綠島小長城,"951, Taiwan, 台東縣綠島鄉公舘村",22.660833,121.506816,HotSpot_pic/綠島小長城.jpg
觀音洞,"31350 Ipoh, Perak, Malaysia",4.5585583,101.1134066,HotSpot_pic/觀音洞.jpg
綠島朝日溫泉,"951, Taiwan, Taitung County, Lvdao Township, 溫泉路167號",22.6370465,121.5041753,HotSpot_pic/綠島朝日溫泉.jpg
小野柳,"No. 500號, Section 1, Songjiang Rd, Taitung City, Taitung County, Taiwan 950",22.7947736,121.1981802,HotSpot_pic/小野柳.jpg
金崙溫泉,"963, Taiwan, Taitung County, Taimali Township, 1",22.5288732,120.9380181,HotSpot_pic/金崙溫泉.jpg
比西里岸部落(白守蓮部落),"No. 220號, Bailian Rd, Chenggong Township, Taitung County, Taiwan 961",23.1297082,121.40036,HotSpot_pic/比西里岸部落(白守蓮部落).jpg
利吉惡地（利吉月世界）,"954, Taiwan, 台東縣卑南鄉卑南溪畔",22.8154858,121.1383606,HotSpot_pic/利吉惡地（利吉月世界）.jpg
台東鐵道藝術村,"Railway Art Village, No. 369號, Tiehua Rd, Taitung City, Taitung County, Taiwan 950",22.7519372,121.1470526,HotSpot_pic/台東鐵道藝術村.jpg
澎湖藍洞秘境,"Penghu County, Taiwan",23.5711899,119.5793157,HotSpot_pic/澎湖藍洞秘境.jpg
望夫石,"Hong Kong, 沙田Lion Rock Country Park",22.3594607,114.1798732,HotSpot_pic/望夫石.jpg
潘安邦紀念館（潘安邦舊居）,"880, Taiwan, Penghu County, Magong City, 新復路1巷4號",23.5631366,119.5607258,HotSpot_pic/潘安邦紀念館（潘安邦舊居）.jpg
馬公老街,"Zhongyang St, Magong City, Penghu County, Taiwan 880",23.5647548,119.5648526,HotSpot_pic/馬公老街.jpg
四眼井,"No. 40號, Zhongyang St, Magong City, Penghu County, Taiwan 880",23.5651792,119.5649382,HotSpot_pic/四眼井.jpg
馬公摸乳巷,"Zhongyang St, Magong City, Penghu County, Taiwan 880",23.5644318,119.5647779,HotSpot_pic/馬公摸乳巷.jpg
風櫃洞,"880, Taiwan, Penghu County, Magong City, 風櫃里",23.537891,119.5437331,HotSpot_pic/風櫃洞.jpg
林投金沙灘(黃金沙灘),"Taiwan, 澎湖縣林投金沙灘",23.5606694,119.6460154,HotSpot_pic/林投金沙灘(黃金沙灘).jpg
蛇頭山遊憩區,"Magong City, Penghu County, Taiwan 880",23.55164,119.547565,HotSpot_pic/蛇頭山遊憩區.jpg
大菓葉柱狀玄武岩,"881, Taiwan, Penghu County, Xiyu Township, 10號",23.595584,119.5163386,HotSpot_pic/大菓葉柱狀玄武岩.jpg
西瀛虹橋,"880, Taiwan, Penghu County, Magong City, 觀音亭海水浴場",23.5692483,119.5599959,HotSpot_pic/西瀛虹橋.jpg
澎湖國內商港馬公碼頭區（馬公港）,"Magong Harbor, Taiwan",23.55895546,119.5673146,HotSpot_pic/澎湖國內商港馬公碼頭區（馬公港）.jpg
澎湖青灣仙人掌公園,"Qingwan Cactus Park, Magong City, Penghu County, Taiwan 880",23.52635,119.55771,HotSpot_pic/澎湖青灣仙人掌公園.jpg
張雨生故事館,"880, Taiwan, Penghu County, Magong City, 新復路2巷22號",23.5634336,119.5605422,HotSpot_pic/張雨生故事館.jpg
澎湖天堂路,"Tiantang Rd., Baisha Township, Penghu County, Taiwan 884",23.67089,119.5712,HotSpot_pic/澎湖天堂路.jpg
外垵漁港,"881, Taiwan, Penghu County, Xiyu Township, 148-14",23.5639893,119.4774794,HotSpot_pic/外垵漁港.jpg
澎澎灘,"884, Taiwan, 澎湖县白沙乡鳥嶼村",23.6590377,119.6396995,HotSpot_pic/澎澎灘.jpg
北山古洋樓（北山古厝群）,892號,24.479211,118.31256,HotSpot_pic/北山古洋樓（北山古厝群）.jpg
葉華成故居（金門高粱酒史館）,893金門城51號,24.3992889,118.3058778,HotSpot_pic/葉華成故居（金門高粱酒史館）.jpg
天后宮,"65, Persiaran Endah, Taman Persiaran Desa, 50460 Kuala Lumpur, Wilayah Persekutuan Kuala Lumpur, Malaysia",3.1219525,101.6876678,HotSpot_pic/天后宮.jpg
鱟魚保護區,892,24.4857104,118.3042288,HotSpot_pic/鱟魚保護區.jpg
北山播音牆（心戰牆）,"Address：, 892",24.4888115,118.3130246,HotSpot_pic/北山播音牆（心戰牆）.jpg
金門嚨口海灘,"Longkou, 892",24.46296,118.3527,HotSpot_pic/金門嚨口海灘.jpg
特約茶室展示館,891126號,24.4482541,118.3847424,HotSpot_pic/特約茶室展示館.jpg
北山聚落,892,24.4772853,118.3082254,HotSpot_pic/北山聚落.jpg
模範街,"893, Jincheng, 模範街",24.4316459,118.3190685,HotSpot_pic/模範街.jpg
金城老街,893,24.4310026,118.318837,HotSpot_pic/金城老街.jpg
太武山．毋忘在莒勒石,"Taiwu Shan, 891",24.4575,118.4013889,HotSpot_pic/太武山．毋忘在莒勒石.jpg
金城鎮風獅爺,893,24.4041728,118.3096119,HotSpot_pic/金城鎮風獅爺.jpg
沙美老街,890,24.4906075,118.4122725,HotSpot_pic/沙美老街.jpg
蔣經國先生紀念館,892,24.437335,118.3542404,HotSpot_pic/蔣經國先生紀念館.jpg
雙口海灘,"Shuangkou Beach, 894",24.4392,118.22945,HotSpot_pic/雙口海灘.jpg
太武山．太武公園（太武山公墓）,891,24.457185,118.404872,HotSpot_pic/太武山．太武公園（太武山公墓）.jpg
中柱港,Dongyin Zhongzhu Harbor,26.363954,120.484367,HotSpot_pic/中柱港.jpg
東引燈塔,169號,26.3660087,120.509928,HotSpot_pic/東引燈塔.jpg
雲台山,"Xiuwu County, Jiaozuo, China, 454361",35.419666,113.378227,HotSpot_pic/雲台山.jpg
介壽村,介壽村,26.1545215,119.9552627,HotSpot_pic/介壽村.jpg
馬祖藍眼淚生態館(前身：漁業展示館),24號,26.1678314,119.9191818,HotSpot_pic/馬祖藍眼淚生態館(前身：漁業展示館).jpg
芹壁村,芹壁村,26.2234479,119.9812799,HotSpot_pic/芹壁村.jpg
馬港天后宮,"65, Persiaran Endah, Taman Persiaran Desa, 50460 Kuala Lumpur, Wilayah Persekutuan Kuala Lumpur, Malaysia",3.1219525,101.6876678,HotSpot_pic/馬港天后宮.jpg
津沙聚落,連江縣南竿鄉,26.1461184,119.9132112,HotSpot_pic/津沙聚落.jpg
大漢據點,209仁愛村95-1號,26.1406281,119.9290658,HotSpot_pic/大漢據點.jpg
南竿機場,"Matsu Nangan Airport (LZN), 209",26.1573804,119.9563963,HotSpot_pic/南竿機場.jpg
和平紀念公園主題館,"Peace Memorial Park - Hiroshima, １丁目-1-10 Nakajimachō, Naka Ward, Hiroshima, 730-0811, Japan",34.3926867,132.4522012,HotSpot_pic/和平紀念公園主題館.jpg
